{
"type": "FeatureCollection",
"name": "chamoli_boundary",
"crs": { "type": "name", "properties": { "name": "urn:ogc:def:crs:OGC:1.3:CRS84" } },
"features": [
{"type":"Feature","properties":{"GID_2":"IND.35.3_1","GID_0":"IND","COUNTRY":"India","GID_1":"IND.35_1","NAME_1":"Uttarakhand","NL_NAME_1":"NA","NAME_2":"Chamoli","VARNAME_2":"Chamoli cum Gopeshwar","NL_NAME_2":"NA","TYPE_2":"District","ENGTYPE_2":"District","CC_2":"NA","HASC_2":"IN.UT.CL"},"geometry":{"type":"MultiPolygon","coordinates":[[[[79.456512451000151,29.986600876000125],[79.454933167000036,29.982429505000027],[79.451622009000175,29.978170395000063],[79.435997009,29.969781875000024],[79.437255859000061,29.962900162000039],[79.424400329000093,29.957061769000063],[79.419670105000023,29.950040817000172],[79.416801453000176,29.942640305000168],[79.412246703999983,29.94052124100017],[79.410026550000168,29.941041946000155],[79.403793334999989,29.947629929000186],[79.400421142000141,29.948549270000115],[79.396186828999987,29.947229386000174],[79.375923157000102,29.935419082000124],[79.361572265000177,29.9329605100001],[79.35727691600016,29.936981200000105],[79.35424804600018,29.944169999000053],[79.346443176000093,29.947959900000058],[79.343322754000042,29.955619811000076],[79.337211608000132,29.962699890000181],[79.33464813300003,29.96829986500012],[79.331069945000081,29.973131179],[79.326553344000047,29.976739883000164],[79.321197510000104,29.978040695000175],[79.317008971000178,29.975908279000123],[79.315071106000175,29.968851089000111],[79.321670532000155,29.950380326000129],[79.321670532000155,29.947330475000115],[79.315032959000121,29.943269730000111],[79.313117981000119,29.935131073000036],[79.305801391000102,29.932199479000133],[79.298912048000034,29.935768128000063],[79.272758483000132,29.932701112000132],[79.274009704000036,29.957450867000091],[79.261169434000067,29.96552086000014],[79.258430481000175,29.966560364000031],[79.249862670000141,29.968658447000166],[79.24130249100017,29.968000411000048],[79.231216431000178,29.977540971000053],[79.225006103000055,29.981861116000175],[79.215019227000084,29.983489990000123],[79.208892822000109,29.989770889000113],[79.20886993400012,29.993209840000191],[79.212326051000048,29.996601104000092],[79.212516785000162,30.000722885000187],[79.211357116000045,30.006420136000031],[79.21121215900007,30.007720948000042],[79.205162048000147,30.015119552000044],[79.204086305000033,30.028701783000031],[79.202819825000063,30.032989502000135],[79.20136261000016,30.033210755000084],[79.195816040000068,30.038129807000132],[79.191207886000029,30.0408210760001],[79.18628692600015,30.042070390000106],[79.178855895000197,30.042169572000148],[79.176200866000158,30.043781280000076],[79.175292968000178,30.046421051000095],[79.17546844400016,30.053369522000082],[79.178146362,30.06199073800002],[79.180892944999982,30.065330505000077],[79.189666749000139,30.071590423000032],[79.190177918000074,30.073650360000045],[79.18628692600015,30.079471587],[79.182662963999974,30.088100434000125],[79.17565155,30.096090316000073],[79.173919679000164,30.098062516000027],[79.168487549000133,30.101499557000068],[79.162429810000106,30.102489471000069],[79.151962280000191,30.101980210000136],[79.144355774000189,30.104101181000033],[79.141372681000178,30.107671739000068],[79.138229371000136,30.118600846000106],[79.126663207000092,30.123769760000187],[79.122947693000128,30.127500535000081],[79.122596741000052,30.154499053000166],[79.124420167000153,30.158231735000072],[79.130516052000132,30.163642884000069],[79.131362915000125,30.16675949],[79.13080596900005,30.169000625000081],[79.128379822000113,30.171461105000105],[79.116271972000163,30.176290512000094],[79.114036560000102,30.177490235000164],[79.111961365000127,30.180080414000145],[79.109870910000041,30.187620163000076],[79.1066207880001,30.191070557000103],[79.092987061000088,30.199220658],[79.083587646000183,30.206689834000031],[79.083030700000108,30.210300445000087],[79.086608887000125,30.218538284000033],[79.086273194000171,30.219581605000087],[79.083030700000108,30.221870422],[79.079437256000119,30.223312378000116],[79.060409545000084,30.227420807000158],[79.057388306000121,30.227182389000177],[79.05388641400009,30.225160599000048],[79.041236877000188,30.222709657000109],[79.033332826000162,30.223220826000045],[79.030822753000052,30.224010468000188],[79.028816224000195,30.225620271000025],[79.025512695000145,30.229410171000097],[79.02274322500017,30.236940384000093],[79.022720336000134,30.238969804000135],[79.024711609000121,30.247760772999982],[79.027877808000198,30.256170272000077],[79.028526306,30.257490159000156],[79.031616211000141,30.259630204000189],[79.033638,30.263130188000048],[79.03495788500004,30.265911103],[79.039093018000187,30.269769669000084],[79.045051575000173,30.273822784000174],[79.054031371000121,30.282409669000174],[79.066246033000198,30.291641235000156],[79.072631835000095,30.298961640000016],[79.077011108000136,30.302709580000169],[79.078132630000198,30.304769517000182],[79.076599121000072,30.305461884000181],[79.060935974000188,30.304710389000093],[79.051078797000059,30.306989671000167],[79.043952941000043,30.307210922000081],[79.041770934000056,30.30812072700013],[79.038757325000176,30.311449050000135],[79.03305816600016,30.315750122000168],[79.030082703000119,30.316839218000041],[79.024932862000071,30.316200257000048],[79.021392822000053,30.314340591000189],[79.018692017000149,30.31940078800011],[79.0167770380001,30.328010559000063],[79.016548157000045,30.332389831],[79.017662049000194,30.334640504000163],[79.022689820000096,30.333969116000048],[79.025398254000038,30.334552765000126],[79.026885986000195,30.33600044300016],[79.028121949000024,30.341751100000181],[79.032791138000107,30.34263038600011],[79.044273376000149,30.346740724000028],[79.049118043000192,30.350099564000118],[79.052642823000156,30.346940995000125],[79.060928344000104,30.34385109100009],[79.065811158000145,30.343812942000056],[79.070892334000121,30.346010209000042],[79.075027465000062,30.349470139000175],[79.078903199000081,30.354890823000119],[79.086120605000076,30.35946083000016],[79.086776733000136,30.360660553000059],[79.091499329000101,30.377420426000072],[79.091728210000156,30.381799699000112],[79.090377807000039,30.386222839000141],[79.09030914300007,30.387430191000192],[79.100471497000115,30.389820100000179],[79.108917235000092,30.388572694000175],[79.110282897000161,30.384420395000063],[79.112281800000062,30.384370804000127],[79.132560731000069,30.385440827000082],[79.146026612000014,30.387250900000026],[79.150337219000107,30.388931276000164],[79.151908875000117,30.39083862300015],[79.152412414000139,30.393201828000031],[79.153259278000178,30.405572891000133],[79.159286498000085,30.416509628000085],[79.160766602000137,30.42338180500019],[79.160392762000129,30.431030274000193],[79.158149719999983,30.440799714000093],[79.152809142000081,30.448850631000028],[79.153709412000126,30.452770232000034],[79.159561158000088,30.458360672000026],[79.163421632000109,30.464580536000028],[79.170608521000133,30.469141007000189],[79.173736573000099,30.477949142000057],[79.176376344000118,30.480140687000073],[79.177421570000092,30.482219697000176],[79.186378480000087,30.488559724000083],[79.205192566000164,30.497619629000155],[79.210136413000043,30.501380920000088],[79.211723328000176,30.506429672000024],[79.212303162000183,30.516401291000022],[79.215278625000053,30.530500412000151],[79.219749451000155,30.536430360000168],[79.225807190000182,30.540069580000193],[79.229431152000188,30.544609071000025],[79.230583191,30.552221298000063],[79.230178833000139,30.557220459000064],[79.233116150000058,30.563791275000142],[79.23277282700019,30.56505966200001],[79.238922120000154,30.5686912540001],[79.241081238000049,30.572490692000088],[79.24253845200019,30.573060989000112],[79.250816345000089,30.573070527000027],[79.259979249000082,30.571069718000103],[79.265663148000044,30.570962906000148],[79.27786254900019,30.568601608000165],[79.282958983000185,30.568670273000066],[79.285812377000184,30.57166290300006],[79.289039611000078,30.577409745000011],[79.293319701000144,30.592159271000071],[79.296226502000081,30.596639634000098],[79.30033111500012,30.598831177000193],[79.307601928000167,30.600561143000164],[79.311439515000131,30.601081849000082],[79.320198058000187,30.600049973000125],[79.324081420000141,30.603330612000036],[79.326446533000194,30.606781006000062],[79.328163147000112,30.611560821000069],[79.332580566000104,30.614610673000129],[79.334472657000049,30.625377655000193],[79.334922791,30.629579545000013],[79.341789245000086,30.633501054000021],[79.342117310000106,30.635679246000166],[79.341636658000141,30.638679504000038],[79.342269897000051,30.643339157000014],[79.341056823000031,30.653810501000123],[79.331390380000016,30.662338257000158],[79.324966431000121,30.664981842000088],[79.317916871000193,30.666820527000084],[79.313636781000071,30.674358368000185],[79.311897277000185,30.675741196000047],[79.305488586000081,30.676259995000066],[79.303291321000074,30.677520752000191],[79.30281066900011,30.679010391000077],[79.301345825000055,30.679769517000182],[79.298431396000069,30.679468155000109],[79.292907715000183,30.682809829],[79.291709901,30.685569764000036],[79.292480469000168,30.690399170000092],[79.291999817000033,30.695350647000112],[79.287261962000116,30.700820923000094],[79.286918641000057,30.702329636000115],[79.28703308200005,30.708650590000161],[79.284149169000045,30.726200105000146],[79.27126312300004,30.731260300000031],[79.266265869000108,30.732299806000071],[79.265029908000088,30.73546028100003],[79.266487121000125,30.742309570000145],[79.274032593000015,30.752500535000024],[79.276336670000148,30.756191253000054],[79.276046752000184,30.757390976000124],[79.267280579000044,30.763610840000126],[79.259696961000145,30.767280579999976],[79.254913329000146,30.770738602000108],[79.250030518000131,30.775960922000024],[79.246665955000196,30.785049438000101],[79.243797303000179,30.786319732000038],[79.240081787000065,30.786430360000111],[79.238403320000032,30.79017067000018],[79.234207154000103,30.793041229999972],[79.226188660000105,30.802129746000048],[79.225402831,30.803640365999968],[79.225151062000066,30.809959412000069],[79.215728760000104,30.81363105700018],[79.21129608200016,30.819322586000112],[79.210800172000177,30.825189591000139],[79.213500976000148,30.82691955700011],[79.228889465,30.833328247000111],[79.229263305000075,30.834890366000138],[79.226440430000139,30.84340095500005],[79.226753235000047,30.846742631000154],[79.235839843000122,30.851869584000099],[79.237426757000151,30.853942871000129],[79.240356445000032,30.860460281000087],[79.243446349000124,30.862930297000162],[79.246940613000049,30.875190734],[79.258666992000087,30.880439758000193],[79.262420653999982,30.884130478000031],[79.261909484000171,30.889429094000036],[79.256301879000091,30.906280518000074],[79.255729675000168,30.911060333000023],[79.257408141000155,30.917221069000163],[79.263267518000077,30.919469834000154],[79.268730164000146,30.922750473000065],[79.266937255000073,30.931270599000186],[79.269889831000114,30.940660477000108],[79.263687133000076,30.948650361000034],[79.262336732000165,30.949920654000039],[79.250473023000097,30.955841066000175],[79.249359131000119,30.957679749000192],[79.249420166000107,30.959920884000041],[79.251350402000128,30.962339401000065],[79.255493164000029,30.965410232000011],[79.265525819000175,30.96978187600007],[79.270431519000169,30.973131180999985],[79.274337769000056,30.97472953800019],[79.281311036000147,30.976289749000046],[79.283218383000133,30.976118088000135],[79.299949647000176,30.968309403000035],[79.304496765000181,30.967741013000079],[79.307868958000029,30.968660354000178],[79.312690734000057,30.973489763000032],[79.314376831000175,30.976261140000076],[79.313941955000075,30.978321076000157],[79.309722900000168,30.986209869000163],[79.309013367000148,30.990579606000153],[79.309562683000138,30.992660523000097],[79.312919617000034,30.996059418000016],[79.315483092000136,31.001012802000048],[79.31574249200014,31.002559662000181],[79.31343078600014,31.00663948100015],[79.30383300900013,31.010189057],[79.296386720000157,31.01482009900019],[79.295631409000123,31.016330720000042],[79.296142578000058,31.018949508],[79.298248292000039,31.023090362000175],[79.305976867000084,31.029270172000054],[79.315696717000151,31.033702850000168],[79.325080872000058,31.035270690000061],[79.333427428,31.035249710000073],[79.345886230000019,31.040018083000177],[79.349151612000014,31.043830871000182],[79.358589172,31.050140382000052],[79.362457276000157,31.054359437000187],[79.374298096000189,31.072652817000176],[79.392356872000107,31.079811097],[79.394691467000087,31.079631806000179],[79.399665831999982,31.080329894000045],[79.400421142000141,31.080099106000148],[79.401741027000185,31.079891206000184],[79.406242370000029,31.076988220000146],[79.407348632000094,31.073389054000074],[79.407882690000065,31.073169709000126],[79.408409119000169,31.072950363000075],[79.408424377000188,31.072542192000128],[79.408462524000072,31.071342468000182],[79.408882141000049,31.056491852000136],[79.409759522000115,31.052360536000094],[79.411361695000039,31.047309877000089],[79.413085938000165,31.037551880000137],[79.421752930000139,31.03582954400008],[79.42471313600015,31.036312104000046],[79.433227540000132,31.037710190000098],[79.45729827800011,31.039501191000056],[79.461097718000019,31.040359496000121],[79.465896606000058,31.041370391000157],[79.472000122000054,31.040260314000079],[79.479812623000157,31.038070679000157],[79.487358094000172,31.041059494000137],[79.49366760200013,31.040872575000037],[79.497062683000138,31.041362763000052],[79.501258850000113,31.039140702000168],[79.50209045400004,31.038000108000119],[79.502876281000113,31.037572861],[79.502792359000068,31.030517578000058],[79.502761841000051,31.027639390000104],[79.504035950000059,31.025840759000062],[79.504577636000079,31.025611878000063],[79.504592896000133,31.024919510000132],[79.504882812000119,31.02380180300014],[79.505386353000119,31.023571015000016],[79.505401612000071,31.023122787999966],[79.507759095000154,31.021799087000147],[79.507766723000088,31.02135086100003],[79.508308410000041,31.020891189000167],[79.508956909000176,31.020811080000044],[79.50940704400017,31.020536422000021],[79.510986328000115,31.01958084],[79.514633179000157,31.017219544000056],[79.516319276000104,31.016229630000055],[79.517097472000046,31.014869689000022],[79.517791747,31.014430999000183],[79.518608093000068,31.013980865000065],[79.518608093000068,31.013511658000027],[79.520339967000155,31.010589599000127],[79.521377563000044,31.009929658000146],[79.521926881000184,31.008350372000052],[79.522468567000089,31.008121491000168],[79.522666931000174,31.004520417000151],[79.520782470000086,30.999015809000127],[79.519493102000183,30.995241165000095],[79.519386292000036,30.993440628000087],[79.523071290000132,30.992559434000157],[79.527534484000114,30.992145539000092],[79.531341552000129,30.991790773000048],[79.536132812000119,30.992189407000183],[79.537712098000043,30.991300583],[79.537521362000064,30.987039565000089],[79.535461425000051,30.98540687600007],[79.535202025999979,30.985202789000141],[79.533256532000166,30.983381271000042],[79.531318664000196,30.977890014000025],[79.530960082000036,30.975910186000192],[79.531120300000168,30.974100114000123],[79.532981872000164,30.973220825000112],[79.532989502000078,30.972761154000011],[79.534309387000121,30.971870422000052],[79.534317017000035,30.971410751000121],[79.535362243,30.96983909700009],[79.53589630100015,30.969852447000164],[79.54062652500005,30.967170716000055],[79.541419982000036,30.966520309000146],[79.54142761200012,30.966049194000163],[79.541687012000125,30.965362549000076],[79.543388367000091,30.964429856000095],[79.5439300540001,30.964439391000099],[79.547386169000106,30.962602615000151],[79.548431396000183,30.962030411000057],[79.550170899000136,30.96108055100018],[79.550453185000038,30.960420608],[79.551231384000062,30.960430146000078],[79.55361175600018,30.958858490000068],[79.559577943000079,30.956718445000035],[79.575729370000033,30.954389573000071],[79.57688903900015,30.953639985000052],[79.580589295000038,30.950290681000013],[79.580596923000144,30.949832916999981],[79.5813980100001,30.949401856000122],[79.5813980100001,30.94894027700002],[79.582443237000177,30.94828033400006],[79.58285522400007,30.947246551000035],[79.583526609999979,30.945560456000067],[79.584815978000108,30.943990708000058],[79.587242127000195,30.943090438000183],[79.589576721000071,30.942888261000064],[79.59031677300004,30.943244935000052],[79.592430115000127,30.94425964300018],[79.59384918100011,30.946310044000086],[79.594322204000093,30.947900770999979],[79.596549988,30.949186326000074],[79.5989532480001,30.95056915400005],[79.603607178000061,30.952680588000135],[79.605918884000175,30.954511643000046],[79.606178284000123,30.955432892000147],[79.606796265000014,30.956560135000075],[79.607818603000055,30.956790925000178],[79.61575317300003,30.961799622000058],[79.624237060000041,30.965330123000058],[79.630332946000124,30.966369629000098],[79.642616272000055,30.967609405000189],[79.649406432000148,30.970590592],[79.650039672000162,30.971719742000175],[79.649826049000183,30.979850769000166],[79.650459289000139,30.980541230000028],[79.651596070000153,30.984361650000096],[79.653945922000048,30.985750200000041],[79.662567139000089,30.986930848000043],[79.6712417600001,30.984251022000024],[79.693237304000149,30.981679917000179],[79.693733215000066,30.981910705000075],[79.69638061600017,30.981689454000161],[79.696876526000153,30.981809615000031],[79.704772949000073,30.983390809000127],[79.714111329000048,30.985651017000123],[79.724792480000133,30.990880965000088],[79.726097106000054,30.992040635000137],[79.726463318000185,30.993629456000065],[79.726959229000101,30.995212556000126],[79.727752686000088,30.995450974000164],[79.729187011000192,30.996339798000122],[79.729301453000062,30.997240066000188],[79.732215882000105,31.001569748000122],[79.732505799000194,31.001991273000101],[79.734207153000114,31.002910614000086],[79.734596252000017,31.003580093000153],[79.738082885000154,31.006099701000039],[79.742149353000173,31.006790160999969],[79.745590209000113,31.00615120100008],[79.750572205000196,31.001190186000031],[79.751396179000153,30.998931885000104],[79.760322570000199,30.993118287000129],[79.778556824000077,30.988260270000069],[79.784523010999976,30.986669540000094],[79.785530091000169,30.986410141000192],[79.792358398000033,30.984239579000189],[79.804992675000108,30.977769851000119],[79.809417725000117,30.977331163000031],[79.810729981000122,30.977560044000086],[79.816062927000132,30.979290009000124],[79.818077088000109,30.980171203000054],[79.821609497000054,30.982046127999979],[79.823478699000191,30.983041763000017],[79.830307007000101,30.983980179000071],[79.841049195000039,30.980871201000014],[79.846786499000075,30.981359482000187],[79.852027892000081,30.980239869],[79.854927063000048,30.978910447000146],[79.855972289000192,30.97735023600012],[79.856262208000089,30.976650238000104],[79.857566834000068,30.975759507000021],[79.858642579000161,30.975070953999989],[79.859687806000068,30.971250535000024],[79.86075592100002,30.97037124700006],[79.861557006000169,30.969909668000184],[79.861572266000167,30.969209672000147],[79.862068177000083,30.968990327000029],[79.86380004900019,30.966060639000091],[79.864540101000159,30.96439170900004],[79.865325928000061,30.961780549000025],[79.865966797000056,30.961200714000086],[79.866889953000054,30.958381652000071],[79.868751525999983,30.952751161000037],[79.869293213000162,30.952539444000024],[79.870079040000064,30.949832916999981],[79.870658875000174,30.949420930000088],[79.871200561000023,30.949190139000109],[79.87358856200018,30.941030502000103],[79.87464141900017,30.938791274999971],[79.874710082000092,30.93044090300009],[79.875251770000148,30.930210115000193],[79.876556396000069,30.929300309000041],[79.877616883000144,30.926391601000034],[79.879989625000178,30.925279618000161],[79.880996704000097,30.925109863000046],[79.881546020000087,30.925092697000082],[79.892532348000145,30.923509598000066],[79.894111634000069,30.923299789000055],[79.897537232000161,30.921749116000058],[79.899375916000054,30.918098450000173],[79.902030945000092,30.915660858000081],[79.903106690000016,30.911809922000145],[79.906036378000124,30.90957069500007],[79.906776428000114,30.907279968000182],[79.908126831000175,30.903251649000026],[79.910781860000043,30.900560380000172],[79.911315918000184,30.899209977000112],[79.911590576000151,30.898740768000096],[79.915046692000146,30.89221954400017],[79.921089173000098,30.890869141000053],[79.934356690000186,30.892980574999967],[79.939659118000122,30.89190101700018],[79.941642761000026,30.892000199000051],[79.943481445000145,30.891590118000124],[79.944038391000049,30.891420365000045],[79.946426393000081,30.89030075200003],[79.957793947000027,30.886290673000133],[79.956792000000178,30.88646298000009],[79.954804980000119,30.886368030000085],[79.94952503900015,30.887443981],[79.93623492100005,30.885330960000033],[79.935307920000184,30.88504701],[79.935449041000084,30.884856030000037],[79.936858980000125,30.882943980000107],[79.947113039000044,30.877166971],[79.957474021000053,30.874722030000157],[79.96852908,30.869528040000091],[79.982582039000022,30.860361001],[79.988029920000031,30.85427898100005],[79.988052960000175,30.854165041000044],[79.989524999000196,30.847056031000136],[79.991920981000021,30.835527029000161],[79.999999920000164,30.828332970000076],[80.02474992100008,30.806305020000025],[80.037415080000073,30.798500041000182],[80.047164959000042,30.789944011000159],[80.051192999000079,30.783695041000044],[80.056809001000033,30.774999961],[80.060783041000036,30.766170960000011],[80.063773920000131,30.759526981000192],[80.06275206000015,30.747110041000042],[80.057569584000191,30.732606432000068],[80.050163269000109,30.731319427000074],[80.02243805,30.738338471000134],[80.016822814000136,30.738212584999985],[80.012176514000089,30.737039566000192],[80.008872986000142,30.733909606000054],[80.00324249300013,30.731130601000075],[79.984878540000068,30.725280762000182],[79.975875855000083,30.717750549000186],[79.966636657000038,30.713920594000115],[79.965820312000062,30.710870744000033],[79.970642090000069,30.699111938000158],[79.971656800000176,30.693979263000131],[79.973220826000102,30.69133949400009],[79.98037719600012,30.685501098000032],[79.984970094000175,30.684030534000044],[79.987350463000041,30.683031082000127],[79.990516662000118,30.678739548000124],[79.995407105000197,30.669839859000149],[79.999320984000121,30.669889451000188],[80.00196838300019,30.667310715000156],[80.002052307000042,30.662240983000061],[80.004211426000097,30.650760650000109],[80.007179260000157,30.646049499000128],[80.00984191900011,30.643922807000024],[80.01988983300015,30.640438081000184],[80.0203475940001,30.638029098000061],[80.017051697000113,30.632852556000046],[80.02018737700007,30.630180358000075],[80.020599366000113,30.62689018400016],[80.018806457000039,30.622360229000094],[80.015419006000116,30.619810105000113],[80.027702331000114,30.607030868000152],[80.027687073000095,30.601369858000169],[80.025695800000108,30.597110748000034],[80.021316527000067,30.595520019000105],[80.01647949300002,30.595260619000157],[80.011917114000141,30.590488433000189],[80.00401306100008,30.579639435000104],[80.001007080000136,30.574220658000058],[79.996841430000131,30.559730529000092],[79.993927001000088,30.554941177000103],[79.987457275,30.549619675000145],[79.985046387000182,30.546239852000042],[79.982192994000116,30.543680192000181],[79.981842040000174,30.540630342000043],[79.983070373000146,30.534780502999979],[79.985069276000047,30.533800124000152],[79.992095948000042,30.526121139000111],[79.995529174000069,30.51725959900017],[79.996856689000197,30.507192612000097],[79.998413086000141,30.505750657000078],[79.999786376000031,30.502269744000102],[79.999732971000185,30.499050141000055],[79.998466490999988,30.495929717000138],[80.002700805000075,30.493999482000049],[80.004890442000146,30.486539842000127],[80.00649261500007,30.483829498000034],[80.00668334900007,30.481220245000088],[80.002906799000073,30.479370116000041],[80.000205993000066,30.475980760000084],[79.999816894999981,30.470838547000142],[80.009498596000185,30.461870194000142],[80.011856079000154,30.452800751000154],[80.014228820000085,30.449871064000149],[80.022537232000047,30.446069718000047],[80.023368836000145,30.438730240000098],[80.022346496000068,30.434539795000035],[80.022460938000165,30.427812577000111],[80.019126892000145,30.422330855999974],[80.019653319000099,30.417581558000165],[80.022811890000071,30.414552689000061],[80.023712159000183,30.409170152000172],[80.018989563000048,30.399139404000096],[80.015861511000082,30.394670487000099],[80.012283326000045,30.391990662000183],[80.00374603400013,30.382749558000114],[79.999450683000077,30.37518119900011],[79.985130309000056,30.369750977000081],[79.982826233000196,30.367269516000192],[79.982597350000162,30.36502075300001],[79.984992980000129,30.362710952000157],[79.989067078000062,30.360851288000106],[79.989166260000104,30.358140946000049],[79.984992980000129,30.355342865000068],[79.98223114100017,30.341150284000037],[79.980339050000168,30.337680817000091],[79.978523254000038,30.331100464000031],[79.978546143000074,30.328060151000045],[79.976730348000046,30.323720933000061],[79.97933960000006,30.320060731000069],[79.97097015300011,30.314210892000176],[79.961326599000131,30.299499512000125],[79.953758239000081,30.296619415000123],[79.942703246000121,30.294340133],[79.940208434000112,30.294340133],[79.936187743000062,30.298799515000042],[79.933158874000185,30.300350190000188],[79.927711486000135,30.301740647000031],[79.920303344000047,30.301750183000081],[79.916557313000169,30.300661087000037],[79.912498473000028,30.297969818000013],[79.909255981000172,30.294240951000177],[79.905296326000041,30.29141807600007],[79.891487121000068,30.28606033300008],[79.885932923000041,30.280780793000076],[79.87637329,30.27815818800002],[79.873519897000108,30.27660942000017],[79.864257812000176,30.275611878],[79.859169006000116,30.273790360000135],[79.843406678000122,30.287380219000056],[79.839027405000081,30.2896881100001],[79.826820373000089,30.293428421000044],[79.804878235000047,30.290689470000189],[79.794448854000166,30.290098190000151],[79.785537719000104,30.288461685000186],[79.78476715000005,30.285800933000132],[79.785476684000116,30.283950806000064],[79.793395997000175,30.268480301000181],[79.79866027900016,30.2557697310001],[79.800292968000178,30.249370576000047],[79.804046631000119,30.24554824900008],[79.801795960000163,30.240312577000111],[79.805526733000022,30.235170365000101],[79.806449891000057,30.228361129000177],[79.80532074100006,30.225770949999969],[79.800697327000137,30.221630096000013],[79.788276672000165,30.215509414000053],[79.785041808000187,30.203239441999983],[79.783370972000171,30.199779510000099],[79.778717041000107,30.194271087000061],[79.770011901000146,30.18670272900016],[79.768035889000089,30.183990480000034],[79.76782226600011,30.177190781000093],[79.769660950000173,30.173271180000029],[79.771392823000042,30.169921876000046],[79.771911620000026,30.165082931000143],[79.769660950000173,30.159889221000128],[79.766937257000109,30.156101228000125],[79.757820130000084,30.149721146000161],[79.751762391000113,30.143680573000154],[79.750556947000177,30.141611099000158],[79.750946045000035,30.138679504000152],[79.755966186000194,30.135721208000177],[79.758537293000188,30.132890701000179],[79.761833191000051,30.124980927000138],[79.766838075000123,30.119611741000142],[79.767356872000107,30.113727570000094],[79.765502930000196,30.105550767000068],[79.76570129400011,30.101169586000026],[79.769302368000183,30.091880799000023],[79.774246215,30.082769394000138],[79.779586792000032,30.081661225000175],[79.79370117100018,30.080581664000135],[79.804176330000132,30.074712754000188],[79.810432435000052,30.066291810000109],[79.815567016000045,30.061080932999971],[79.809745788000157,30.054309846000081],[79.804618835000042,30.051559449000024],[79.801429748000089,30.046789171000171],[79.799118042000089,30.035331726000152],[79.800628663000111,30.027610778999986],[79.793342590000066,30.022979737000185],[79.789276124000082,30.021200179000175],[79.78405761700003,30.02000045800014],[79.777610780000145,30.019630433000145],[79.770362855000087,30.01210022000015],[79.762771607000104,30.008550644000081],[79.759208680000086,30.009138107000126],[79.753471374000185,30.012952805000111],[79.739646911000023,30.010850907000076],[79.733970642000145,30.011100769000166],[79.727317809999988,30.010351181000146],[79.69198608500011,30.008329391000188],[79.684013366000045,30.008169174000159],[79.682090759000062,30.008581163000031],[79.67827606200018,30.010950089000119],[79.673332214000027,30.012390136000192],[79.664222717000143,30.01229095400015],[79.65363311800013,30.009849550000126],[79.651199341000108,30.010080338000023],[79.635787964000087,30.019760132000158],[79.622558594000111,30.023019792000184],[79.603988647000051,30.025131226000099],[79.597923280000145,30.024642945000096],[79.586723327000072,30.020730972000024],[79.583786010000154,30.015859604000184],[79.58125305100009,30.01423072800003],[79.571960448000084,30.011859894000168],[79.563461305000033,30.01198959300018],[79.548019409000119,30.009912490000147],[79.543479919000049,30.008928299000161],[79.541519164000078,30.006910324999978],[79.540283204000161,30.003480911000111],[79.530288696000071,30.000959396000098],[79.521331788000055,30.004581451000035],[79.521263123000153,30.006910324999978],[79.516677857000047,30.012002946000109],[79.513931274000072,30.016250610000043],[79.509559632000048,30.020429611],[79.491966247000164,30.021520614000167],[79.486526490000131,30.023550034000039],[79.480583191000164,30.028221131000066],[79.473846436000088,30.029542923000179],[79.468986511000196,30.019540787000039],[79.461502075000169,30.00687027000015],[79.456756592000033,29.988531113000022],[79.456512451000151,29.986600876000125]]]]}},
{"type":"Feature","properties":{"GID_2":"Z05.35.3_1","GID_0":"Z05","COUNTRY":"India","GID_1":"Z05.35_1","NAME_1":"Uttarakhand","NL_NAME_1":"NA","NAME_2":"Chamoli","VARNAME_2":"Chamoli cum Gopeshwar","NL_NAME_2":"NA","TYPE_2":"District","ENGTYPE_2":"District","CC_2":"NA","HASC_2":"IN.UT.CL"},"geometry":{"type":"MultiPolygon","coordinates":[[[[79.957793947000027,30.886290673000133],[79.959808350000174,30.885580061000155],[79.967498780000199,30.882314681000139],[79.967575072000102,30.882282259000135],[79.967643739000039,30.882238389000065],[79.97559534300018,30.87717424900012],[79.980659481000146,30.873949051000068],[79.980777740000065,30.873649595000131],[79.980895998000051,30.87335014100006],[79.987579348000054,30.870000841000035],[79.991531372000054,30.868780138000034],[79.992226684,30.868473748999975],[79.994712830000196,30.86737822900011],[79.995706601000109,30.866788981000013],[79.996498109000015,30.86631965800018],[79.999160768000138,30.864311219],[80.000198365000131,30.863406180000027],[80.001235958999985,30.862501141000166],[80.001525880000088,30.861820220000084],[80.002792359000182,30.861179350000157],[80.003326418000199,30.860719681000035],[80.003529588000163,30.860243828000193],[80.00361633100016,30.860040662000074],[80.005304219000152,30.858670950000089],[80.008361817000036,30.85618972900005],[80.009452819000046,30.853950501000043],[80.017822268000032,30.847879409000086],[80.018081667000104,30.846517560999985],[80.019586029000038,30.845925061000173],[80.02490997100017,30.843828202000168],[80.027778627000032,30.843389511000169],[80.029067991000147,30.843610762000083],[80.029477345000089,30.843727564000176],[80.02976989800004,30.843811038000183],[80.038246153000159,30.842960359000188],[80.041082492999976,30.843559030999984],[80.042655941000135,30.843891141000142],[80.044113160000052,30.843999861000043],[80.046607970000196,30.840732571999979],[80.047706602000176,30.839401249000048],[80.0477828920001,30.839336015000185],[80.04823302900013,30.838951111000142],[80.048469540000042,30.838390350000168],[80.04926685200013,30.836009045000083],[80.050331118000088,30.832830429000126],[80.060431851000146,30.826797195000097],[80.064208983000185,30.824541091000128],[80.064208983000185,30.824079512000026],[80.064636230000076,30.82369041200019],[80.064659120000044,30.823230742000135],[80.066482542000074,30.822111129000177],[80.069488529000012,30.819339752000076],[80.069620866000037,30.818220858000075],[80.069656370000132,30.817920683000182],[80.070381162000103,30.812280652000084],[80.071098121000148,30.810400855000069],[80.071617129000117,30.809040069000105],[80.072693469000171,30.804918585000166],[80.074050901000021,30.799720763000153],[80.083061220000104,30.795289993000154],[80.083312989000092,30.794599531000074],[80.084877009000138,30.79331970100003],[80.086586,30.79186058],[80.08374023500005,30.789472580000108],[80.075256347000106,30.776979447000031],[80.074386596000181,30.768640518999973],[80.075782776999972,30.763330460000191],[80.081741333000082,30.752170562000174],[80.082656861000146,30.748289108000165],[80.08854675300006,30.739461899000162],[80.090072632000101,30.730569840000101],[80.088935853000066,30.727951050000172],[80.079933166000103,30.729120254000065],[80.072853089000034,30.731439591000026],[80.06582641500006,30.732400895000183],[80.057769775000111,30.732641220000062],[80.057569584000191,30.732606432000068],[80.06275206000015,30.747110041000042],[80.063773920000131,30.759526981000192],[80.060783041000036,30.766170960000011],[80.056809001000033,30.774999961],[80.051192999000079,30.783695041000044],[80.047164959000042,30.789944011000159],[80.037415080000073,30.798500041000182],[80.02474992100008,30.806305020000025],[79.999999920000164,30.828332970000076],[79.991920981000021,30.835527029000161],[79.989524999000196,30.847056031000136],[79.988052960000175,30.854165041000044],[79.988029920000031,30.85427898100005],[79.982582039000022,30.860361001],[79.96852908,30.869528040000091],[79.957474021000053,30.874722030000157],[79.947113039000044,30.877166971],[79.936858980000125,30.882943980000107],[79.935449041000084,30.884856030000037],[79.935307920000184,30.88504701],[79.93623492100005,30.885330960000033],[79.94952503900015,30.887443981],[79.954804980000119,30.886368030000085],[79.956792000000178,30.88646298000009],[79.957793947000027,30.886290673000133]]]]}}
]
}
