{
"type": "FeatureCollection",
"name": "landslide_zones_v1",
"crs": { "type": "name", "properties": { "name": "urn:ogc:def:crs:OGC:1.3:CRS84" } },
"xy_coordinate_resolution": 1e-15,
"features": [
{"type":"Feature","properties":{"DN":1},"geometry":{"type":"MultiPolygon","coordinates":[[[[79.451622009000175,29.978170395000063],[79.435997009,29.969781875000024],[79.437255859000061,29.962900162000039],[79.424400329000093,29.957061769000063],[79.419670105000023,29.950040817000172],[79.416801453000176,29.942640305000168],[79.412246703999983,29.94052124100017],[79.410026550000168,29.941041946000155],[79.403793334999989,29.947629929000186],[79.400421142000141,29.948549270000115],[79.396186828999987,29.947229386000174],[79.375923157000102,29.935419082000124],[79.361572265000177,29.9329605100001],[79.35727691600016,29.936981200000105],[79.35424804600018,29.944169999000053],[79.346443176000093,29.947959900000058],[79.343322754000042,29.955619811000076],[79.337211608000132,29.962699890000181],[79.33464813300003,29.96829986500012],[79.331069945000081,29.973131179],[79.326553344000047,29.976739883000164],[79.321197510000104,29.978040695000175],[79.317008971000178,29.975908279000123],[79.315071106000175,29.968851089000111],[79.321670532000155,29.950380326000129],[79.321670532000155,29.947330475000115],[79.315032959000121,29.943269730000111],[79.313117981000119,29.935131073000036],[79.305801391000102,29.932199479000133],[79.298912048000034,29.935768128000063],[79.272758483000132,29.932701112000132],[79.274009704000036,29.957450867000091],[79.261169434000067,29.96552086000014],[79.258430481000175,29.966560364000031],[79.249862670000141,29.968658447000166],[79.24130249100017,29.968000411000048],[79.231216431000178,29.977540971000053],[79.225006103000055,29.981861116000175],[79.215019227000084,29.983489990000123],[79.208892822000109,29.989770889000113],[79.20886993400012,29.993209840000191],[79.212326051000048,29.996601104000092],[79.212473746909183,29.999792827508877],[79.459670699488925,29.999792827508877],[79.456756592000033,29.988531113000022],[79.456512451000151,29.986600876000125],[79.454933167000036,29.982429505000027],[79.451622009000175,29.978170395000063]],[[79.255341021336349,29.98927122137308],[79.255639139768732,29.98927122137308],[79.255639139768732,29.989590057922651],[79.255341021336349,29.989590057922651],[79.255341021336349,29.98927122137308]],[[79.346863380076982,29.98193798073298],[79.347161498509365,29.98193798073298],[79.347161498509365,29.982256817282551],[79.346863380076982,29.982256817282551],[79.346863380076982,29.98193798073298]],[[79.346565261644599,29.979706124885993],[79.346863380076982,29.979706124885993],[79.346863380076982,29.980024961435564],[79.346565261644599,29.980024961435564],[79.346565261644599,29.979706124885993]],[[79.40648706655297,29.948778979577749],[79.406785184985353,29.948778979577749],[79.406785184985353,29.949097816127317],[79.40648706655297,29.949097816127317],[79.40648706655297,29.948778979577749]]]]}}
]
}
