{
"type": "FeatureCollection",
"name": "landslide_zones_v3",
"crs": { "type": "name", "properties": { "name": "urn:ogc:def:crs:OGC:1.3:CRS84" } },
"xy_coordinate_resolution": 1e-15,
"features": [
{"type":"Feature","properties":{"DN":1},"geometry":{"type":"MultiPolygon","coordinates":[[[[80.000198365000131,30.863406180000027],[80.001235958999985,30.862501141000166],[80.001525880000088,30.861820220000084],[80.002792359000182,30.861179350000157],[80.003326418000199,30.860719681000035],[80.003529588000163,30.860243828000193],[80.00361633100016,30.860040662000074],[80.005304219000152,30.858670950000089],[80.008361817000036,30.85618972900005],[80.009452819000046,30.853950501000043],[80.017822268000032,30.847879409000086],[80.018081667000104,30.846517560999985],[80.019586029000038,30.845925061000173],[80.02490997100017,30.843828202000168],[80.027778627000032,30.843389511000169],[80.029067991000147,30.843610762000083],[80.029477345000089,30.843727564000176],[80.02976989800004,30.843811038000183],[80.038246153000159,30.842960359000188],[80.041082492999976,30.843559030999984],[80.042655941000135,30.843891141000142],[80.044113160000052,30.843999861000043],[80.046607970000196,30.840732571999979],[80.047706602000176,30.839401249000048],[80.0477828920001,30.839336015000185],[80.04823302900013,30.838951111000142],[80.048469540000042,30.838390350000168],[80.04926685200013,30.836009045000083],[80.050331118000088,30.832830429000126],[80.060431851000146,30.826797195000097],[80.064208983000185,30.824541091000128],[80.064208983000185,30.824079512000026],[80.064636230000076,30.82369041200019],[80.064659120000044,30.823230742000135],[80.066482542000074,30.822111129000177],[80.069488529000012,30.819339752000076],[80.069620866000037,30.818220858000075],[80.069656370000132,30.817920683000182],[80.070381162000103,30.812280652000084],[80.071098121000148,30.810400855000069],[80.071617129000117,30.809040069000105],[80.072693469000171,30.804918585000166],[80.074050901000021,30.799720763000153],[80.083061220000104,30.795289993000154],[80.083312989000092,30.794599531000074],[80.084877009000138,30.79331970100003],[80.086586,30.79186058],[80.08374023500005,30.789472580000108],[80.075256347000106,30.776979447000031],[80.074386596000181,30.768640518999973],[80.075782776999972,30.763330460000191],[80.081741333000082,30.752170562000174],[80.082656861000146,30.748289108000165],[80.08854675300006,30.739461899000162],[80.090072632000101,30.730569840000101],[80.088935853000066,30.727951050000172],[80.079933166000103,30.729120254000065],[80.072853089000034,30.731439591000026],[80.06582641500006,30.732400895000183],[80.057769775000111,30.732641220000062],[80.057569584000191,30.732606432000068],[80.050163269000109,30.731319427000074],[80.02243805,30.738338471000134],[80.016822814000136,30.738212584999985],[80.012176514000089,30.737039566000192],[80.008872986000142,30.733909606000054],[80.00324249300013,30.731130601000075],[80.000040865421369,30.730110722225973],[80.000040865421369,30.863543558251177],[80.000198365000131,30.863406180000027]],[[80.072483644489694,30.768188911971464],[80.072781762922062,30.768188911971464],[80.072781762922062,30.768507748521035],[80.072483644489694,30.768507748521035],[80.072483644489694,30.768188911971464]]],[[[80.00196838300019,30.667310715000156],[80.002052307000042,30.662240983000061],[80.004211426000097,30.650760650000109],[80.007179260000157,30.646049499000128],[80.00984191900011,30.643922807000024],[80.01988983300015,30.640438081000184],[80.0203475940001,30.638029098000061],[80.017051697000113,30.632852556000046],[80.02018737700007,30.630180358000075],[80.020599366000113,30.62689018400016],[80.018806457000039,30.622360229000094],[80.015419006000116,30.619810105000113],[80.027702331000114,30.607030868000152],[80.027687073000095,30.601369858000169],[80.025695800000108,30.597110748000034],[80.021316527000067,30.595520019000105],[80.01647949300002,30.595260619000157],[80.011917114000141,30.590488433000189],[80.00401306100008,30.579639435000104],[80.001007080000136,30.574220658000058],[80.000040865421369,30.570859700193239],[80.000040865421369,30.669188240439681],[80.00196838300019,30.667310715000156]]],[[[80.002700805000075,30.493999482000049],[80.004890442000146,30.486539842000127],[80.00649261500007,30.483829498000034],[80.00668334900007,30.481220245000088],[80.002906799000073,30.479370116000041],[80.000205993000066,30.475980760000084],[80.000040865421369,30.473798478976693],[80.000040865421369,30.495212029882147],[80.002700805000075,30.493999482000049]]],[[[80.009498596000185,30.461870194000142],[80.011856079000154,30.452800751000154],[80.014228820000085,30.449871064000149],[80.022537232000047,30.446069718000047],[80.023368836000145,30.438730240000098],[80.022346496000068,30.434539795000035],[80.022460938000165,30.427812577000111],[80.019126892000145,30.422330855999974],[80.019653319000099,30.417581558000165],[80.022811890000071,30.414552689000061],[80.023712159000183,30.409170152000172],[80.018989563000048,30.399139404000096],[80.015861511000082,30.394670487000099],[80.012283326000045,30.391990662000183],[80.00374603400013,30.382749558000114],[80.000040865421369,30.376221093630321],[80.000040865421369,30.47063107872566],[80.009498596000185,30.461870194000142]]]]}}
]
}
