{
"type": "FeatureCollection",
"name": "landslide_zones_v2",
"crs": { "type": "name", "properties": { "name": "urn:ogc:def:crs:OGC:1.3:CRS84" } },
"xy_coordinate_resolution": 1e-15,
"features": [
{"type":"Feature","properties":{"DN":1},"geometry":{"type":"MultiPolygon","coordinates":[[[[79.212516785000162,30.000722885000187],[79.211357116000045,30.006420136000031],[79.21121215900007,30.007720948000042],[79.205162048000147,30.015119552000044],[79.204086305000033,30.028701783000031],[79.202819825000063,30.032989502000135],[79.20136261000016,30.033210755000084],[79.195816040000068,30.038129807000132],[79.191207886000029,30.0408210760001],[79.18628692600015,30.042070390000106],[79.178855895000197,30.042169572000148],[79.176200866000158,30.043781280000076],[79.175292968000178,30.046421051000095],[79.17546844400016,30.053369522000082],[79.178146362,30.06199073800002],[79.180892944999982,30.065330505000077],[79.189666749000139,30.071590423000032],[79.190177918000074,30.073650360000045],[79.18628692600015,30.079471587],[79.182662963999974,30.088100434000125],[79.17565155,30.096090316000073],[79.173919679000164,30.098062516000027],[79.168487549000133,30.101499557000068],[79.162429810000106,30.102489471000069],[79.151962280000191,30.101980210000136],[79.144355774000189,30.104101181000033],[79.141372681000178,30.107671739000068],[79.138229371000136,30.118600846000106],[79.126663207000092,30.123769760000187],[79.122947693000128,30.127500535000081],[79.122596741000052,30.154499053000166],[79.124420167000153,30.158231735000072],[79.130516052000132,30.163642884000069],[79.131362915000125,30.16675949],[79.13080596900005,30.169000625000081],[79.128379822000113,30.171461105000105],[79.116271972000163,30.176290512000094],[79.114036560000102,30.177490235000164],[79.111961365000127,30.180080414000145],[79.109870910000041,30.187620163000076],[79.1066207880001,30.191070557000103],[79.092987061000088,30.199220658],[79.083587646000183,30.206689834000031],[79.083030700000108,30.210300445000087],[79.086608887000125,30.218538284000033],[79.086273194000171,30.219581605000087],[79.083030700000108,30.221870422],[79.079437256000119,30.223312378000116],[79.060409545000084,30.227420807000158],[79.057388306000121,30.227182389000177],[79.05388641400009,30.225160599000048],[79.041236877000188,30.222709657000109],[79.033332826000162,30.223220826000045],[79.030822753000052,30.224010468000188],[79.028816224000195,30.225620271000025],[79.025512695000145,30.229410171000097],[79.02274322500017,30.236940384000093],[79.022720336000134,30.238969804000135],[79.024711609000121,30.247760772999982],[79.027877808000198,30.256170272000077],[79.028526306,30.257490159000156],[79.031616211000141,30.259630204000189],[79.033638,30.263130188000048],[79.03495788500004,30.265911103],[79.039093018000187,30.269769669000084],[79.045051575000173,30.273822784000174],[79.054031371000121,30.282409669000174],[79.066246033000198,30.291641235000156],[79.072631835000095,30.298961640000016],[79.077011108000136,30.302709580000169],[79.078132630000198,30.304769517000182],[79.076599121000072,30.305461884000181],[79.060935974000188,30.304710389000093],[79.051078797000059,30.306989671000167],[79.043952941000043,30.307210922000081],[79.041770934000056,30.30812072700013],[79.038757325000176,30.311449050000135],[79.03305816600016,30.315750122000168],[79.030082703000119,30.316839218000041],[79.024932862000071,30.316200257000048],[79.021392822000053,30.314340591000189],[79.018692017000149,30.31940078800011],[79.0167770380001,30.328010559000063],[79.016548157000045,30.332389831],[79.017662049000194,30.334640504000163],[79.022689820000096,30.333969116000048],[79.025398254000038,30.334552765000126],[79.026885986000195,30.33600044300016],[79.028121949000024,30.341751100000181],[79.032791138000107,30.34263038600011],[79.044273376000149,30.346740724000028],[79.049118043000192,30.350099564000118],[79.052642823000156,30.346940995000125],[79.060928344000104,30.34385109100009],[79.065811158000145,30.343812942000056],[79.070892334000121,30.346010209000042],[79.075027465000062,30.349470139000175],[79.078903199000081,30.354890823000119],[79.086120605000076,30.35946083000016],[79.086776733000136,30.360660553000059],[79.091499329000101,30.377420426000072],[79.091728210000156,30.381799699000112],[79.090377807000039,30.386222839000141],[79.09030914300007,30.387430191000192],[79.100471497000115,30.389820100000179],[79.108917235000092,30.388572694000175],[79.110282897000161,30.384420395000063],[79.112281800000062,30.384370804000127],[79.132560731000069,30.385440827000082],[79.146026612000014,30.387250900000026],[79.150337219000107,30.388931276000164],[79.151908875000117,30.39083862300015],[79.152412414000139,30.393201828000031],[79.153259278000178,30.405572891000133],[79.159286498000085,30.416509628000085],[79.160766602000137,30.42338180500019],[79.160392762000129,30.431030274000193],[79.158149719999983,30.440799714000093],[79.152809142000081,30.448850631000028],[79.153709412000126,30.452770232000034],[79.159561158000088,30.458360672000026],[79.163421632000109,30.464580536000028],[79.170608521000133,30.469141007000189],[79.173736573000099,30.477949142000057],[79.176376344000118,30.480140687000073],[79.177421570000092,30.482219697000176],[79.186378480000087,30.488559724000083],[79.205192566000164,30.497619629000155],[79.210136413000043,30.501380920000088],[79.211723328000176,30.506429672000024],[79.212303162000183,30.516401291000022],[79.215278625000053,30.530500412000151],[79.219749451000155,30.536430360000168],[79.225807190000182,30.540069580000193],[79.229431152000188,30.544609071000025],[79.230583191,30.552221298000063],[79.230178833000139,30.557220459000064],[79.233116150000058,30.563791275000142],[79.23277282700019,30.56505966200001],[79.238922120000154,30.5686912540001],[79.241081238000049,30.572490692000088],[79.24253845200019,30.573060989000112],[79.250816345000089,30.573070527000027],[79.259979249000082,30.571069718000103],[79.265663148000044,30.570962906000148],[79.27786254900019,30.568601608000165],[79.282958983000185,30.568670273000066],[79.285812377000184,30.57166290300006],[79.289039611000078,30.577409745000011],[79.293319701000144,30.592159271000071],[79.296226502000081,30.596639634000098],[79.30033111500012,30.598831177000193],[79.307601928000167,30.600561143000164],[79.311439515000131,30.601081849000082],[79.320198058000187,30.600049973000125],[79.324081420000141,30.603330612000036],[79.326446533000194,30.606781006000062],[79.328163147000112,30.611560821000069],[79.332580566000104,30.614610673000129],[79.334472657000049,30.625377655000193],[79.334922791,30.629579545000013],[79.341789245000086,30.633501054000021],[79.342117310000106,30.635679246000166],[79.341636658000141,30.638679504000038],[79.342269897000051,30.643339157000014],[79.341056823000031,30.653810501000123],[79.331390380000016,30.662338257000158],[79.324966431000121,30.664981842000088],[79.317916871000193,30.666820527000084],[79.313636781000071,30.674358368000185],[79.311897277000185,30.675741196000047],[79.305488586000081,30.676259995000066],[79.303291321000074,30.677520752000191],[79.30281066900011,30.679010391000077],[79.301345825000055,30.679769517000182],[79.298431396000069,30.679468155000109],[79.292907715000183,30.682809829],[79.291709901,30.685569764000036],[79.292480469000168,30.690399170000092],[79.291999817000033,30.695350647000112],[79.287261962000116,30.700820923000094],[79.286918641000057,30.702329636000115],[79.28703308200005,30.708650590000161],[79.284149169000045,30.726200105000146],[79.27126312300004,30.731260300000031],[79.266265869000108,30.732299806000071],[79.265029908000088,30.73546028100003],[79.266487121000125,30.742309570000145],[79.274032593000015,30.752500535000024],[79.276336670000148,30.756191253000054],[79.276046752000184,30.757390976000124],[79.267280579000044,30.763610840000126],[79.259696961000145,30.767280579999976],[79.254913329000146,30.770738602000108],[79.250030518000131,30.775960922000024],[79.246665955000196,30.785049438000101],[79.243797303000179,30.786319732000038],[79.240081787000065,30.786430360000111],[79.238403320000032,30.79017067000018],[79.234207154000103,30.793041229999972],[79.226188660000105,30.802129746000048],[79.225402831,30.803640365999968],[79.225151062000066,30.809959412000069],[79.215728760000104,30.81363105700018],[79.21129608200016,30.819322586000112],[79.210800172000177,30.825189591000139],[79.213500976000148,30.82691955700011],[79.228889465,30.833328247000111],[79.229263305000075,30.834890366000138],[79.226440430000139,30.84340095500005],[79.226753235000047,30.846742631000154],[79.235839843000122,30.851869584000099],[79.237426757000151,30.853942871000129],[79.240356445000032,30.860460281000087],[79.243446349000124,30.862930297000162],[79.246940613000049,30.875190734],[79.258666992000087,30.880439758000193],[79.262420653999982,30.884130478000031],[79.261909484000171,30.889429094000036],[79.256301879000091,30.906280518000074],[79.255729675000168,30.911060333000023],[79.257408141000155,30.917221069000163],[79.263267518000077,30.919469834000154],[79.268730164000146,30.922750473000065],[79.266937255000073,30.931270599000186],[79.269889831000114,30.940660477000108],[79.263687133000076,30.948650361000034],[79.262336732000165,30.949920654000039],[79.250473023000097,30.955841066000175],[79.249359131000119,30.957679749000192],[79.249420166000107,30.959920884000041],[79.251350402000128,30.962339401000065],[79.255493164000029,30.965410232000011],[79.265525819000175,30.96978187600007],[79.270431519000169,30.973131180999985],[79.274337769000056,30.97472953800019],[79.281311036000147,30.976289749000046],[79.283218383000133,30.976118088000135],[79.299949647000176,30.968309403000035],[79.304496765000181,30.967741013000079],[79.307868958000029,30.968660354000178],[79.312690734000057,30.973489763000032],[79.314376831000175,30.976261140000076],[79.313941955000075,30.978321076000157],[79.309722900000168,30.986209869000163],[79.309013367000148,30.990579606000153],[79.309562683000138,30.992660523000097],[79.312919617000034,30.996059418000016],[79.314950192146185,30.999983083508521],[79.521113609127056,30.999983083508521],[79.520782470000086,30.999015809000127],[79.519493102000183,30.995241165000095],[79.519386292000036,30.993440628000087],[79.523071290000132,30.992559434000157],[79.527534484000114,30.992145539000092],[79.531341552000129,30.991790773000048],[79.536132812000119,30.992189407000183],[79.537712098000043,30.991300583],[79.537521362000064,30.987039565000089],[79.535461425000051,30.98540687600007],[79.535202025999979,30.985202789000141],[79.533256532000166,30.983381271000042],[79.531318664000196,30.977890014000025],[79.530960082000036,30.975910186000192],[79.531120300000168,30.974100114000123],[79.532981872000164,30.973220825000112],[79.532989502000078,30.972761154000011],[79.534309387000121,30.971870422000052],[79.534317017000035,30.971410751000121],[79.535362243,30.96983909700009],[79.53589630100015,30.969852447000164],[79.54062652500005,30.967170716000055],[79.541419982000036,30.966520309000146],[79.54142761200012,30.966049194000163],[79.541687012000125,30.965362549000076],[79.543388367000091,30.964429856000095],[79.5439300540001,30.964439391000099],[79.547386169000106,30.962602615000151],[79.548431396000183,30.962030411000057],[79.550170899000136,30.96108055100018],[79.550453185000038,30.960420608],[79.551231384000062,30.960430146000078],[79.55361175600018,30.958858490000068],[79.559577943000079,30.956718445000035],[79.575729370000033,30.954389573000071],[79.57688903900015,30.953639985000052],[79.580589295000038,30.950290681000013],[79.580596923000144,30.949832916999981],[79.5813980100001,30.949401856000122],[79.5813980100001,30.94894027700002],[79.582443237000177,30.94828033400006],[79.58285522400007,30.947246551000035],[79.583526609999979,30.945560456000067],[79.584815978000108,30.943990708000058],[79.587242127000195,30.943090438000183],[79.589576721000071,30.942888261000064],[79.59031677300004,30.943244935000052],[79.592430115000127,30.94425964300018],[79.59384918100011,30.946310044000086],[79.594322204000093,30.947900770999979],[79.596549988,30.949186326000074],[79.5989532480001,30.95056915400005],[79.603607178000061,30.952680588000135],[79.605918884000175,30.954511643000046],[79.606178284000123,30.955432892000147],[79.606796265000014,30.956560135000075],[79.607818603000055,30.956790925000178],[79.61575317300003,30.961799622000058],[79.624237060000041,30.965330123000058],[79.630332946000124,30.966369629000098],[79.642616272000055,30.967609405000189],[79.649406432000148,30.970590592],[79.650039672000162,30.971719742000175],[79.649826049000183,30.979850769000166],[79.650459289000139,30.980541230000028],[79.651596070000153,30.984361650000096],[79.653945922000048,30.985750200000041],[79.662567139000089,30.986930848000043],[79.6712417600001,30.984251022000024],[79.693237304000149,30.981679917000179],[79.693733215000066,30.981910705000075],[79.69638061600017,30.981689454000161],[79.696876526000153,30.981809615000031],[79.704772949000073,30.983390809000127],[79.714111329000048,30.985651017000123],[79.724792480000133,30.990880965000088],[79.726097106000054,30.992040635000137],[79.726463318000185,30.993629456000065],[79.726959229000101,30.995212556000126],[79.727752686000088,30.995450974000164],[79.729187011000192,30.996339798000122],[79.729301453000062,30.997240066000188],[79.731147854138541,30.999983083508521],[79.751012633919245,30.999983083508521],[79.751396179000153,30.998931885000104],[79.760322570000199,30.993118287000129],[79.778556824000077,30.988260270000069],[79.784523010999976,30.986669540000094],[79.785530091000169,30.986410141000192],[79.792358398000033,30.984239579000189],[79.804992675000108,30.977769851000119],[79.809417725000117,30.977331163000031],[79.810729981000122,30.977560044000086],[79.816062927000132,30.979290009000124],[79.818077088000109,30.980171203000054],[79.821609497000054,30.982046127999979],[79.823478699000191,30.983041763000017],[79.830307007000101,30.983980179000071],[79.841049195000039,30.980871201000014],[79.846786499000075,30.981359482000187],[79.852027892000081,30.980239869],[79.854927063000048,30.978910447000146],[79.855972289000192,30.97735023600012],[79.856262208000089,30.976650238000104],[79.857566834000068,30.975759507000021],[79.858642579000161,30.975070953999989],[79.859687806000068,30.971250535000024],[79.86075592100002,30.97037124700006],[79.861557006000169,30.969909668000184],[79.861572266000167,30.969209672000147],[79.862068177000083,30.968990327000029],[79.86380004900019,30.966060639000091],[79.864540101000159,30.96439170900004],[79.865325928000061,30.961780549000025],[79.865966797000056,30.961200714000086],[79.866889953000054,30.958381652000071],[79.868751525999983,30.952751161000037],[79.869293213000162,30.952539444000024],[79.870079040000064,30.949832916999981],[79.870658875000174,30.949420930000088],[79.871200561000023,30.949190139000109],[79.87358856200018,30.941030502000103],[79.87464141900017,30.938791274999971],[79.874710082000092,30.93044090300009],[79.875251770000148,30.930210115000193],[79.876556396000069,30.929300309000041],[79.877616883000144,30.926391601000034],[79.879989625000178,30.925279618000161],[79.880996704000097,30.925109863000046],[79.881546020000087,30.925092697000082],[79.892532348000145,30.923509598000066],[79.894111634000069,30.923299789000055],[79.897537232000161,30.921749116000058],[79.899375916000054,30.918098450000173],[79.902030945000092,30.915660858000081],[79.903106690000016,30.911809922000145],[79.906036378000124,30.90957069500007],[79.906776428000114,30.907279968000182],[79.908126831000175,30.903251649000026],[79.910781860000043,30.900560380000172],[79.911315918000184,30.899209977000112],[79.911590576000151,30.898740768000096],[79.915046692000146,30.89221954400017],[79.921089173000098,30.890869141000053],[79.934356690000186,30.892980574999967],[79.939659118000122,30.89190101700018],[79.941642761000026,30.892000199000051],[79.943481445000145,30.891590118000124],[79.944038391000049,30.891420365000045],[79.946426393000081,30.89030075200003],[79.957793947000027,30.886290673000133],[79.959808350000174,30.885580061000155],[79.967498780000199,30.882314681000139],[79.967575072000102,30.882282259000135],[79.967643739000039,30.882238389000065],[79.97559534300018,30.87717424900012],[79.980659481000146,30.873949051000068],[79.980777740000065,30.873649595000131],[79.980895998000051,30.87335014100006],[79.987579348000054,30.870000841000035],[79.991531372000054,30.868780138000034],[79.992226684,30.868473748999975],[79.994712830000196,30.86737822900011],[79.995706601000109,30.866788981000013],[79.996498109000015,30.86631965800018],[79.999160768000138,30.864311219],[79.999742746988986,30.863803590622052],[79.999742746988986,30.730015756570577],[79.984878540000068,30.725280762000182],[79.975875855000083,30.717750549000186],[79.966636657000038,30.713920594000115],[79.965820312000062,30.710870744000033],[79.970642090000069,30.699111938000158],[79.971656800000176,30.693979263000131],[79.973220826000102,30.69133949400009],[79.98037719600012,30.685501098000032],[79.984970094000175,30.684030534000044],[79.987350463000041,30.683031082000127],[79.990516662000118,30.678739548000124],[79.995407105000197,30.669839859000149],[79.999320984000121,30.669889451000188],[79.999742746988986,30.669478626865693],[79.999742746988986,30.569822701275307],[79.996841430000131,30.559730529000092],[79.993927001000088,30.554941177000103],[79.987457275,30.549619675000145],[79.985046387000182,30.546239852000042],[79.982192994000116,30.543680192000181],[79.981842040000174,30.540630342000043],[79.983070373000146,30.534780502999979],[79.985069276000047,30.533800124000152],[79.992095948000042,30.526121139000111],[79.995529174000069,30.51725959900017],[79.996856689000197,30.507192612000097],[79.998413086000141,30.505750657000078],[79.999742746988986,30.50238033156117],[79.999742746988986,30.499639501602278],[79.999732971000185,30.499050141000055],[79.998466490999988,30.495929717000138],[79.999742746988986,30.495347928786277],[79.999742746988986,30.375695812385374],[79.999450683000077,30.37518119900011],[79.985130309000056,30.369750977000081],[79.982826233000196,30.367269516000192],[79.982597350000162,30.36502075300001],[79.984992980000129,30.362710952000157],[79.989067078000062,30.360851288000106],[79.989166260000104,30.358140946000049],[79.984992980000129,30.355342865000068],[79.98223114100017,30.341150284000037],[79.980339050000168,30.337680817000091],[79.978523254000038,30.331100464000031],[79.978546143000074,30.328060151000045],[79.976730348000046,30.323720933000061],[79.97933960000006,30.320060731000069],[79.97097015300011,30.314210892000176],[79.961326599000131,30.299499512000125],[79.953758239000081,30.296619415000123],[79.942703246000121,30.294340133],[79.940208434000112,30.294340133],[79.936187743000062,30.298799515000042],[79.933158874000185,30.300350190000188],[79.927711486000135,30.301740647000031],[79.920303344000047,30.301750183000081],[79.916557313000169,30.300661087000037],[79.912498473000028,30.297969818000013],[79.909255981000172,30.294240951000177],[79.905296326000041,30.29141807600007],[79.891487121000068,30.28606033300008],[79.885932923000041,30.280780793000076],[79.87637329,30.27815818800002],[79.873519897000108,30.27660942000017],[79.864257812000176,30.275611878],[79.859169006000116,30.273790360000135],[79.843406678000122,30.287380219000056],[79.839027405000081,30.2896881100001],[79.826820373000089,30.293428421000044],[79.804878235000047,30.290689470000189],[79.794448854000166,30.290098190000151],[79.785537719000104,30.288461685000186],[79.78476715000005,30.285800933000132],[79.785476684000116,30.283950806000064],[79.793395997000175,30.268480301000181],[79.79866027900016,30.2557697310001],[79.800292968000178,30.249370576000047],[79.804046631000119,30.24554824900008],[79.801795960000163,30.240312577000111],[79.805526733000022,30.235170365000101],[79.806449891000057,30.228361129000177],[79.80532074100006,30.225770949999969],[79.800697327000137,30.221630096000013],[79.788276672000165,30.215509414000053],[79.785041808000187,30.203239441999983],[79.783370972000171,30.199779510000099],[79.778717041000107,30.194271087000061],[79.770011901000146,30.18670272900016],[79.768035889000089,30.183990480000034],[79.76782226600011,30.177190781000093],[79.769660950000173,30.173271180000029],[79.771392823000042,30.169921876000046],[79.771911620000026,30.165082931000143],[79.769660950000173,30.159889221000128],[79.766937257000109,30.156101228000125],[79.757820130000084,30.149721146000161],[79.751762391000113,30.143680573000154],[79.750556947000177,30.141611099000158],[79.750946045000035,30.138679504000152],[79.755966186000194,30.135721208000177],[79.758537293000188,30.132890701000179],[79.761833191000051,30.124980927000138],[79.766838075000123,30.119611741000142],[79.767356872000107,30.113727570000094],[79.765502930000196,30.105550767000068],[79.76570129400011,30.101169586000026],[79.769302368000183,30.091880799000023],[79.774246215,30.082769394000138],[79.779586792000032,30.081661225000175],[79.79370117100018,30.080581664000135],[79.804176330000132,30.074712754000188],[79.810432435000052,30.066291810000109],[79.815567016000045,30.061080932999971],[79.809745788000157,30.054309846000081],[79.804618835000042,30.051559449000024],[79.801429748000089,30.046789171000171],[79.799118042000089,30.035331726000152],[79.800628663000111,30.027610778999986],[79.793342590000066,30.022979737000185],[79.789276124000082,30.021200179000175],[79.78405761700003,30.02000045800014],[79.777610780000145,30.019630433000145],[79.770362855000087,30.01210022000015],[79.762771607000104,30.008550644000081],[79.759208680000086,30.009138107000126],[79.753471374000185,30.012952805000111],[79.739646911000023,30.010850907000076],[79.733970642000145,30.011100769000166],[79.727317809999988,30.010351181000146],[79.69198608500011,30.008329391000188],[79.684013366000045,30.008169174000159],[79.682090759000062,30.008581163000031],[79.67827606200018,30.010950089000119],[79.673332214000027,30.012390136000192],[79.664222717000143,30.01229095400015],[79.65363311800013,30.009849550000126],[79.651199341000108,30.010080338000023],[79.635787964000087,30.019760132000158],[79.622558594000111,30.023019792000184],[79.603988647000051,30.025131226000099],[79.597923280000145,30.024642945000096],[79.586723327000072,30.020730972000024],[79.583786010000154,30.015859604000184],[79.58125305100009,30.01423072800003],[79.571960448000084,30.011859894000168],[79.563461305000033,30.01198959300018],[79.548019409000119,30.009912490000147],[79.543479919000049,30.008928299000161],[79.541519164000078,30.006910324999978],[79.540283204000161,30.003480911000111],[79.530288696000071,30.000959396000098],[79.521331788000055,30.004581451000035],[79.521263123000153,30.006910324999978],[79.516677857000047,30.012002946000109],[79.513931274000072,30.016250610000043],[79.509559632000048,30.020429611],[79.491966247000164,30.021520614000167],[79.486526490000131,30.023550034000039],[79.480583191000164,30.028221131000066],[79.473846436000088,30.029542923000179],[79.468986511000196,30.019540787000039],[79.461502075000169,30.00687027000015],[79.45975320237747,30.000111664058444],[79.212488500961015,30.000111664058444],[79.212516785000162,30.000722885000187]],[[79.428249712116695,30.998070064211102],[79.428547830549078,30.998070064211102],[79.428547830549078,30.998388900760673],[79.428249712116695,30.998388900760673],[79.428249712116695,30.998070064211102]],[[79.740677829250842,30.998070064211102],[79.740975947683225,30.998070064211102],[79.740975947683225,30.998388900760673],[79.740677829250842,30.998388900760673],[79.740677829250842,30.998070064211102]],[[79.32301390548659,30.994562862165839],[79.323312023918973,30.994562862165839],[79.323312023918973,30.994881698715407],[79.32301390548659,30.994881698715407],[79.32301390548659,30.994562862165839]],[[79.374290275855941,30.994562862165839],[79.374588394288324,30.994562862165839],[79.374588394288324,30.994881698715407],[79.374290275855941,30.994881698715407],[79.374290275855941,30.994562862165839]],[[79.732926750008971,30.98754845807531],[79.733224868441354,30.98754845807531],[79.733224868441354,30.987867294624877],[79.732926750008971,30.987867294624877],[79.732926750008971,30.98754845807531]],[[79.465812634596574,30.9865919484266],[79.466110753028943,30.9865919484266],[79.466110753028943,30.986910784976171],[79.465812634596574,30.986910784976171],[79.465812634596574,30.9865919484266]],[[79.533485518746815,30.984678929129181],[79.533783637179184,30.984678929129181],[79.533783637179184,30.984997765678752],[79.533485518746815,30.984997765678752],[79.533485518746815,30.984678929129181]],[[79.44077068627665,30.982765909831766],[79.441068804709033,30.982765909831766],[79.441068804709033,30.983084746381333],[79.44077068627665,30.983084746381333],[79.44077068627665,30.982765909831766]],[[79.447925528653769,30.98053405398478],[79.448223647086152,30.98053405398478],[79.448223647086152,30.980852890534347],[79.447925528653769,30.980852890534347],[79.447925528653769,30.98053405398478]],[[79.698643130285276,30.979896380885641],[79.698941248717659,30.979896380885641],[79.698941248717659,30.980215217435209],[79.698643130285276,30.980215217435209],[79.698643130285276,30.979896380885641]],[[79.376377104882593,30.979258707786499],[79.376675223314976,30.979258707786499],[79.376675223314976,30.97957754433607],[79.376377104882593,30.97957754433607],[79.376377104882593,30.979258707786499]],[[79.658397141913994,30.977345688489084],[79.658695260346377,30.977345688489084],[79.658695260346377,30.977664525038652],[79.658397141913994,30.977664525038652],[79.658397141913994,30.977345688489084]],[[79.350440801265549,30.976708015389946],[79.350738919697918,30.976708015389946],[79.350738919697918,30.977026851939513],[79.350440801265549,30.977026851939513],[79.350440801265549,30.976708015389946]],[[79.520666426154477,30.975113832642098],[79.520964544586846,30.975113832642098],[79.520964544586846,30.975432669191665],[79.520666426154477,30.975432669191665],[79.520666426154477,30.975113832642098]],[[79.317647773703754,30.974794996092527],[79.317945892136137,30.974794996092527],[79.317945892136137,30.975113832642098],[79.317647773703754,30.975113832642098],[79.317647773703754,30.974794996092527]],[[79.520964544586846,30.974476159542956],[79.521262663019229,30.974476159542956],[79.521262663019229,30.974794996092527],[79.520964544586846,30.974794996092527],[79.520964544586846,30.974476159542956]],[[79.797916568267794,30.973200813344679],[79.798214686700163,30.973200813344679],[79.798214686700163,30.97351964989425],[79.797916568267794,30.97351964989425],[79.797916568267794,30.973200813344679]],[[79.362663656993121,30.969055938200274],[79.362961775425504,30.969055938200274],[79.362961775425504,30.969374774749845],[79.362663656993121,30.969374774749845],[79.362663656993121,30.969055938200274]],[[79.322119550189456,30.968737101650706],[79.322417668621839,30.968737101650706],[79.322417668621839,30.969055938200274],[79.322119550189456,30.969055938200274],[79.322119550189456,30.968737101650706]],[[79.486979043295548,30.967780592001997],[79.487277161727917,30.967780592001997],[79.487277161727917,30.968099428551568],[79.486979043295548,30.968099428551568],[79.486979043295548,30.967780592001997]],[[79.410064487741522,30.965867572704578],[79.410362606173905,30.965867572704578],[79.410362606173905,30.966186409254149],[79.410064487741522,30.966186409254149],[79.410064487741522,30.965867572704578]],[[79.441665041573799,30.963316880308025],[79.441963160006182,30.963316880308025],[79.441963160006182,30.963635716857592],[79.441665041573799,30.963635716857592],[79.441665041573799,30.963316880308025]],[[79.300356904625716,30.960447351361896],[79.300655023058098,30.960447351361896],[79.300655023058098,30.960766187911467],[79.300356904625716,30.960766187911467],[79.300356904625716,30.960447351361896]],[[79.327783800404674,30.95821549551491],[79.328081918837057,30.95821549551491],[79.328081918837057,30.958534332064481],[79.327783800404674,30.958534332064481],[79.327783800404674,30.95821549551491]],[[79.469091937352744,30.955027130019214],[79.469390055785126,30.955027130019214],[79.469390055785126,30.955345966568785],[79.469091937352744,30.955345966568785],[79.469091937352744,30.955027130019214]],[[79.280382969656259,30.954389456920076],[79.280681088088642,30.954389456920076],[79.280681088088642,30.954708293469647],[79.280382969656259,30.954708293469647],[79.280382969656259,30.954389456920076]],[[79.421094869739576,30.951838764523519],[79.421392988171959,30.951838764523519],[79.421392988171959,30.95215760107309],[79.421094869739576,30.95215760107309],[79.421094869739576,30.951838764523519]],[[79.340304774564629,30.95120109142438],[79.340602892997012,30.95120109142438],[79.340602892997012,30.951519927973951],[79.340304774564629,30.951519927973951],[79.340304774564629,30.95120109142438]],[[79.423777935631009,30.950882254874813],[79.424076054063377,30.950882254874813],[79.424076054063377,30.95120109142438],[79.423777935631009,30.95120109142438],[79.423777935631009,30.950882254874813]],[[79.427951593684327,30.948650399027823],[79.428249712116695,30.948650399027823],[79.428249712116695,30.948969235577394],[79.427951593684327,30.948969235577394],[79.427951593684327,30.948650399027823]],[[79.703413025203361,30.946099706631269],[79.703711143635743,30.946099706631269],[79.703711143635743,30.946418543180837],[79.703413025203361,30.946418543180837],[79.703413025203361,30.946099706631269]],[[79.700729959311943,30.94514319698256],[79.701028077744326,30.94514319698256],[79.701028077744326,30.945462033532131],[79.700729959311943,30.945462033532131],[79.700729959311943,30.94514319698256]],[[79.773470856812636,30.942273668036435],[79.773768975245019,30.942273668036435],[79.773768975245019,30.942592504586003],[79.773470856812636,30.942592504586003],[79.773470856812636,30.942273668036435]],[[79.640808154403572,30.941635994937293],[79.641106272835955,30.941635994937293],[79.641106272835955,30.941954831486864],[79.640808154403572,30.941954831486864],[79.640808154403572,30.941635994937293]],[[79.657800905049228,30.93812879289203],[79.658099023481611,30.93812879289203],[79.658099023481611,30.938447629441601],[79.657800905049228,30.938447629441601],[79.657800905049228,30.93812879289203]],[[79.584761889116152,30.937809956342459],[79.585060007548535,30.937809956342459],[79.585060007548535,30.93812879289203],[79.584761889116152,30.93812879289203],[79.584761889116152,30.937809956342459]],[[79.560018059228625,30.936215773594611],[79.560316177661008,30.936215773594611],[79.560316177661008,30.936534610144182],[79.560018059228625,30.936534610144182],[79.560018059228625,30.936215773594611]],[[79.57730892830665,30.935259263945905],[79.577607046739033,30.935259263945905],[79.577607046739033,30.935578100495473],[79.57730892830665,30.935578100495473],[79.57730892830665,30.935259263945905]],[[79.298270075599063,30.934302754297196],[79.298568194031446,30.934302754297196],[79.298568194031446,30.934621590846763],[79.298270075599063,30.934621590846763],[79.298270075599063,30.934302754297196]],[[79.571942796523814,30.9311143888015],[79.572240914956197,30.9311143888015],[79.572240914956197,30.931433225351071],[79.571942796523814,30.931433225351071],[79.571942796523814,30.9311143888015]],[[79.576712691441898,30.930795552251929],[79.577010809874281,30.930795552251929],[79.577010809874281,30.9311143888015],[79.576712691441898,30.9311143888015],[79.576712691441898,30.930795552251929]],[[79.433615843899545,30.929839042603223],[79.433913962331914,30.929839042603223],[79.433913962331914,30.930157879152791],[79.433615843899545,30.930157879152791],[79.433615843899545,30.929839042603223]],[[79.726070026064235,30.929201369504081],[79.726368144496604,30.929201369504081],[79.726368144496604,30.929520206053652],[79.726070026064235,30.929520206053652],[79.726070026064235,30.929201369504081]],[[79.726070026064235,30.928244859855376],[79.726368144496604,30.928244859855376],[79.726368144496604,30.928563696404943],[79.726070026064235,30.928563696404943],[79.726070026064235,30.928244859855376]],[[79.722194486443286,30.925694167458818],[79.722492604875669,30.925694167458818],[79.722492604875669,30.926013004008386],[79.722194486443286,30.926013004008386],[79.722194486443286,30.925694167458818]],[[79.465216397731808,30.923143475062261],[79.465514516164191,30.923143475062261],[79.465514516164191,30.923462311611832],[79.465216397731808,30.923462311611832],[79.465216397731808,30.923143475062261]],[[79.458955910651838,30.921868128863984],[79.459254029084207,30.921868128863984],[79.459254029084207,30.922186965413552],[79.458955910651838,30.922186965413552],[79.458955910651838,30.921868128863984]],[[79.73859100022419,30.91676674407087],[79.738889118656573,30.91676674407087],[79.738889118656573,30.917085580620441],[79.73859100022419,30.917085580620441],[79.73859100022419,30.91676674407087]],[[79.379358289206394,30.915172561323022],[79.379656407638777,30.915172561323022],[79.379656407638777,30.915491397872593],[79.379358289206394,30.915491397872593],[79.379358289206394,30.915172561323022]],[[79.742466539845125,30.915172561323022],[79.742764658277508,30.915172561323022],[79.742764658277508,30.915491397872593],[79.742466539845125,30.915491397872593],[79.742466539845125,30.915172561323022]],[[79.611592548030345,30.909114666881202],[79.611890666462727,30.909114666881202],[79.611890666462727,30.909433503430773],[79.611592548030345,30.909433503430773],[79.611592548030345,30.909114666881202]],[[79.549583914095322,30.906245137935077],[79.549882032527705,30.906245137935077],[79.549882032527705,30.906563974484644],[79.549583914095322,30.906563974484644],[79.549583914095322,30.906245137935077]],[[79.553161335283889,30.905926301385506],[79.553459453716258,30.905926301385506],[79.553459453716258,30.906245137935077],[79.553161335283889,30.906245137935077],[79.553161335283889,30.905926301385506]],[[79.681054142774869,30.903375608988949],[79.681352261207238,30.903375608988949],[79.681352261207238,30.90369444553852],[79.681054142774869,30.90369444553852],[79.681054142774869,30.903375608988949]],[[79.292903943816228,30.90273793588981],[79.293202062248596,30.90273793588981],[79.293202062248596,30.903056772439381],[79.292903943816228,30.903056772439381],[79.292903943816228,30.90273793588981]],[[79.722492604875669,30.897636551096699],[79.722790723308051,30.897636551096699],[79.722790723308051,30.897955387646267],[79.722492604875669,30.897955387646267],[79.722492604875669,30.897636551096699]],[[79.755881869302229,30.896998877997561],[79.756179987734598,30.896998877997561],[79.756179987734598,30.897317714547128],[79.755881869302229,30.897317714547128],[79.755881869302229,30.896998877997561]],[[79.832498306423858,30.896998877997561],[79.832796424856241,30.896998877997561],[79.832796424856241,30.897317714547128],[79.832498306423858,30.897317714547128],[79.832498306423858,30.896998877997561]],[[79.754391277140328,30.895404695249713],[79.754689395572697,30.895404695249713],[79.754689395572697,30.89572353179928],[79.754391277140328,30.89572353179928],[79.754391277140328,30.895404695249713]],[[79.299462549328581,30.893491675952294],[79.299760667760964,30.893491675952294],[79.299760667760964,30.893810512501865],[79.299462549328581,30.893810512501865],[79.299462549328581,30.893491675952294]],[[79.806860121239183,30.893172839402723],[79.807158239671566,30.893172839402723],[79.807158239671566,30.893491675952294],[79.806860121239183,30.893491675952294],[79.806860121239183,30.893172839402723]],[[79.28008485122389,30.890303310456598],[79.280382969656259,30.890303310456598],[79.280382969656259,30.890622147006169],[79.28008485122389,30.890622147006169],[79.28008485122389,30.890303310456598]],[[79.637826970079772,30.890303310456598],[79.638125088512155,30.890303310456598],[79.638125088512155,30.890622147006169],[79.637826970079772,30.890622147006169],[79.637826970079772,30.890303310456598]],[[79.700133722447177,30.890303310456598],[79.70043184087956,30.890303310456598],[79.70043184087956,30.890622147006169],[79.700133722447177,30.890622147006169],[79.700133722447177,30.890303310456598]],[[79.341199129861764,30.889346800807889],[79.341497248294147,30.889346800807889],[79.341497248294147,30.88966563735746],[79.341199129861764,30.88966563735746],[79.341199129861764,30.889346800807889]],[[79.71056786758048,30.889027964258322],[79.710865986012863,30.889027964258322],[79.710865986012863,30.889346800807889],[79.71056786758048,30.889346800807889],[79.71056786758048,30.889027964258322]],[[79.705201735797644,30.888071454609612],[79.705499854230013,30.888071454609612],[79.705499854230013,30.888390291159183],[79.705201735797644,30.888390291159183],[79.705201735797644,30.888071454609612]],[[79.682842853369138,30.887433781510474],[79.683140971801521,30.887433781510474],[79.683140971801521,30.887752618060041],[79.682842853369138,30.887752618060041],[79.682842853369138,30.887433781510474]],[[79.267563877063935,30.886158435312193],[79.267861995496304,30.886158435312193],[79.267861995496304,30.886477271861764],[79.267563877063935,30.886477271861764],[79.267563877063935,30.886158435312193]],[[79.342689722023664,30.884883089113917],[79.342987840456047,30.884883089113917],[79.342987840456047,30.885201925663488],[79.342689722023664,30.885201925663488],[79.342689722023664,30.884883089113917]],[[79.654223483860676,30.883288906366069],[79.654521602293059,30.883288906366069],[79.654521602293059,30.88360774291564],[79.654223483860676,30.88360774291564],[79.654223483860676,30.883288906366069]],[[79.667638813317765,30.883288906366069],[79.667936931750148,30.883288906366069],[79.667936931750148,30.88360774291564],[79.667638813317765,30.88360774291564],[79.667638813317765,30.883288906366069]],[[79.287537812033378,30.880100540870373],[79.287835930465761,30.880100540870373],[79.287835930465761,30.880419377419944],[79.287537812033378,30.880419377419944],[79.287537812033378,30.880100540870373]],[[79.675688010992033,30.879144031221664],[79.675986129424402,30.879144031221664],[79.675986129424402,30.879462867771235],[79.675688010992033,30.879462867771235],[79.675688010992033,30.879144031221664]],[[79.712356578174749,30.872448463680705],[79.712654696607132,30.872448463680705],[79.712654696607132,30.872767300230276],[79.712356578174749,30.872767300230276],[79.712356578174749,30.872448463680705]],[[79.341795366726529,30.867028242338023],[79.342093485158912,30.867028242338023],[79.342093485158912,30.867347078887594],[79.341795366726529,30.867347078887594],[79.341795366726529,30.867028242338023]],[[79.460446502813738,30.866390569238884],[79.460744621246107,30.866390569238884],[79.460744621246107,30.866709405788452],[79.460446502813738,30.866709405788452],[79.460446502813738,30.866390569238884]],[[79.57402962555048,30.86256453064405],[79.574327743982863,30.86256453064405],[79.574327743982863,30.862883367193618],[79.57402962555048,30.862883367193618],[79.57402962555048,30.86256453064405]],[[79.337621708673211,30.86128918444577],[79.337919827105594,30.86128918444577],[79.337919827105594,30.861608020995341],[79.337621708673211,30.861608020995341],[79.337621708673211,30.86128918444577]],[[79.466110753028943,30.860651511346632],[79.466408871461326,30.860651511346632],[79.466408871461326,30.860970347896203],[79.466110753028943,30.860970347896203],[79.466110753028943,30.860651511346632]],[[79.465812634596574,30.859695001697922],[79.466110753028943,30.859695001697922],[79.466110753028943,30.860013838247493],[79.465812634596574,30.860013838247493],[79.465812634596574,30.859695001697922]],[[79.596984744843724,30.858419655499645],[79.597282863276106,30.858419655499645],[79.597282863276106,30.858738492049216],[79.596984744843724,30.858738492049216],[79.596984744843724,30.858419655499645]],[[79.272930008846771,30.857144309301368],[79.273228127279154,30.857144309301368],[79.273228127279154,30.857463145850936],[79.272930008846771,30.857463145850936],[79.272930008846771,30.857144309301368]],[[79.401419053202503,30.856506636202226],[79.401717171634886,30.856506636202226],[79.401717171634886,30.856825472751797],[79.401419053202503,30.856825472751797],[79.401419053202503,30.856506636202226]],[[79.308704220732352,30.856187799652659],[79.309002339164735,30.856187799652659],[79.309002339164735,30.856506636202226],[79.308704220732352,30.856506636202226],[79.308704220732352,30.856187799652659]],[[79.596388507978972,30.856187799652659],[79.596686626411355,30.856187799652659],[79.596686626411355,30.856506636202226],[79.596388507978972,30.856506636202226],[79.596388507978972,30.856187799652659]],[[79.633057075161702,30.855868963103088],[79.633355193594085,30.855868963103088],[79.633355193594085,30.856187799652659],[79.633057075161702,30.856187799652659],[79.633057075161702,30.855868963103088]],[[79.301549378355233,30.852680597607392],[79.301847496787616,30.852680597607392],[79.301847496787616,30.852999434156963],[79.301549378355233,30.852999434156963],[79.301549378355233,30.852680597607392]],[[79.629777772405518,30.851724087958683],[79.630075890837901,30.851724087958683],[79.630075890837901,30.852042924508254],[79.629777772405518,30.852042924508254],[79.629777772405518,30.851724087958683]],[[79.698941248717659,30.847898049363849],[79.699239367150042,30.847898049363849],[79.699239367150042,30.84821688591342],[79.698941248717659,30.84821688591342],[79.698941248717659,30.847898049363849]],[[79.251167363283031,30.847579212814281],[79.251465481715414,30.847579212814281],[79.251465481715414,30.847898049363849],[79.251167363283031,30.847898049363849],[79.251167363283031,30.847579212814281]],[[79.964862890400539,30.845347356967295],[79.965161008832922,30.845347356967295],[79.965161008832922,30.845666193516863],[79.964862890400539,30.845666193516863],[79.964862890400539,30.845347356967295]],[[79.275911193170572,30.844709683868153],[79.27620931160294,30.844709683868153],[79.27620931160294,30.845028520417724],[79.275911193170572,30.845028520417724],[79.275911193170572,30.844709683868153]],[[79.588637428737087,30.844072010769015],[79.58893554716947,30.844072010769015],[79.58893554716947,30.844390847318586],[79.588637428737087,30.844390847318586],[79.588637428737087,30.844072010769015]],[[79.953832508402485,30.843115501120309],[79.954130626834868,30.843115501120309],[79.954130626834868,30.843434337669876],[79.953832508402485,30.843434337669876],[79.953832508402485,30.843115501120309]],[[79.960391113914838,30.841521318372461],[79.960689232347221,30.841521318372461],[79.960689232347221,30.841840154922028],[79.960391113914838,30.841840154922028],[79.960391113914838,30.841521318372461]],[[79.442857515303317,30.840564808723752],[79.443155633735699,30.840564808723752],[79.443155633735699,30.840883645273319],[79.442857515303317,30.840883645273319],[79.442857515303317,30.840564808723752]],[[79.62083421943413,30.839927135624613],[79.621132337866499,30.839927135624613],[79.621132337866499,30.840245972174181],[79.62083421943413,30.840245972174181],[79.62083421943413,30.839927135624613]],[[79.526926913234448,30.839608299075042],[79.527225031666831,30.839608299075042],[79.527225031666831,30.839927135624613],[79.526926913234448,30.839927135624613],[79.526926913234448,30.839608299075042]],[[79.523349492045895,30.838014116327194],[79.523647610478278,30.838014116327194],[79.523647610478278,30.838332952876765],[79.523349492045895,30.838332952876765],[79.523349492045895,30.838014116327194]],[[79.770489672488836,30.838014116327194],[79.770787790921219,30.838014116327194],[79.770787790921219,30.838332952876765],[79.770489672488836,30.838332952876765],[79.770489672488836,30.838014116327194]],[[79.587743073439952,30.836101097029776],[79.588041191872335,30.836101097029776],[79.588041191872335,30.836419933579347],[79.587743073439952,30.836419933579347],[79.587743073439952,30.836101097029776]],[[79.717126473092833,30.83514458738107],[79.717424591525216,30.83514458738107],[79.717424591525216,30.835463423930637],[79.717126473092833,30.835463423930637],[79.717126473092833,30.83514458738107]],[[79.852472241393315,30.83418807773236],[79.852770359825698,30.83418807773236],[79.852770359825698,30.834506914281931],[79.852472241393315,30.834506914281931],[79.852472241393315,30.83418807773236]],[[79.753198803410797,30.833231568083651],[79.75349692184318,30.833231568083651],[79.75349692184318,30.833550404633222],[79.753198803410797,30.833550404633222],[79.753198803410797,30.833231568083651]],[[79.589829902466619,30.832275058434941],[79.590128020898987,30.832275058434941],[79.590128020898987,30.832593894984512],[79.589829902466619,30.832593894984512],[79.589829902466619,30.832275058434941]],[[79.937137876189212,30.831956221885374],[79.93743599462158,30.831956221885374],[79.93743599462158,30.832275058434941],[79.937137876189212,30.832275058434941],[79.937137876189212,30.831956221885374]],[[79.747832671627961,30.831637385335803],[79.748130790060344,30.831637385335803],[79.748130790060344,30.831956221885374],[79.747832671627961,30.831956221885374],[79.747832671627961,30.831637385335803]],[[79.709375393850962,30.829724366038388],[79.709673512283331,30.829724366038388],[79.709673512283331,30.830043202587955],[79.709375393850962,30.830043202587955],[79.709375393850962,30.829724366038388]],[[79.96933466688624,30.822709961947858],[79.969632785318623,30.822709961947858],[79.969632785318623,30.823028798497425],[79.96933466688624,30.823028798497425],[79.96933466688624,30.822709961947858]],[[79.553459453716258,30.821753452299149],[79.553757572148641,30.821753452299149],[79.553757572148641,30.822072288848716],[79.553459453716258,30.822072288848716],[79.553459453716258,30.821753452299149]],[[79.938926586783481,30.821434615749578],[79.939224705215864,30.821434615749578],[79.939224705215864,30.821753452299149],[79.938926586783481,30.821753452299149],[79.938926586783481,30.821434615749578]],[[79.559123703931476,30.820796942650439],[79.559421822363859,30.820796942650439],[79.559421822363859,30.82111577920001],[79.559123703931476,30.82111577920001],[79.559123703931476,30.820796942650439]],[[79.975893272398594,30.819521596452162],[79.976191390830977,30.819521596452162],[79.976191390830977,30.81984043300173],[79.975893272398594,30.81984043300173],[79.975893272398594,30.819521596452162]],[[79.215989388262201,30.819202759902591],[79.216287506694584,30.819202759902591],[79.216287506694584,30.819521596452162],[79.215989388262201,30.819521596452162],[79.215989388262201,30.819202759902591]],[[79.213902559235549,30.818246250253882],[79.214200677667932,30.818246250253882],[79.214200677667932,30.818565086803453],[79.213902559235549,30.818565086803453],[79.213902559235549,30.818246250253882]],[[79.401419053202503,30.816014394406896],[79.401717171634886,30.816014394406896],[79.401717171634886,30.816333230956467],[79.401419053202503,30.816333230956467],[79.401419053202503,30.816014394406896]],[[79.237155796961176,30.813463702010338],[79.237453915393559,30.813463702010338],[79.237453915393559,30.813782538559909],[79.237155796961176,30.813782538559909],[79.237155796961176,30.813463702010338]],[[79.25683161349825,30.810594173064214],[79.257129731930632,30.810594173064214],[79.257129731930632,30.810913009613785],[79.25683161349825,30.810913009613785],[79.25683161349825,30.810594173064214]],[[79.612785021759862,30.810275336514646],[79.613083140192245,30.810275336514646],[79.613083140192245,30.810594173064214],[79.612785021759862,30.810594173064214],[79.612785021759862,30.810275336514646]],[[79.912394046301671,30.808999990316366],[79.912692164734054,30.808999990316366],[79.912692164734054,30.809318826865937],[79.912394046301671,30.809318826865937],[79.912394046301671,30.808999990316366]],[[79.646174286186408,30.808362317217227],[79.646472404618791,30.808362317217227],[79.646472404618791,30.808681153766798],[79.646174286186408,30.808681153766798],[79.646174286186408,30.808362317217227]],[[79.694469472231958,30.80581162482067],[79.694767590664341,30.80581162482067],[79.694767590664341,30.806130461370241],[79.694469472231958,30.806130461370241],[79.694469472231958,30.80581162482067]],[[79.656310312887328,30.802942095874545],[79.656608431319711,30.802942095874545],[79.656608431319711,30.803260932424116],[79.656310312887328,30.803260932424116],[79.656310312887328,30.802942095874545]],[[79.752602566546045,30.801347913126698],[79.752900684978428,30.801347913126698],[79.752900684978428,30.801666749676269],[79.752602566546045,30.801666749676269],[79.752602566546045,30.801347913126698]],[[79.71056786758048,30.800710240027559],[79.710865986012863,30.800710240027559],[79.710865986012863,30.801029076577127],[79.71056786758048,30.801029076577127],[79.71056786758048,30.800710240027559]],[[79.702220551473843,30.79975373037885],[79.702518669906212,30.79975373037885],[79.702518669906212,30.800072566928421],[79.702220551473843,30.800072566928421],[79.702220551473843,30.79975373037885]],[[79.704009262068112,30.799116057279711],[79.704307380500495,30.799116057279711],[79.704307380500495,30.799434893829279],[79.704009262068112,30.799434893829279],[79.704009262068112,30.799116057279711]],[[79.930877389109227,30.799116057279711],[79.93117550754161,30.799116057279711],[79.93117550754161,30.799434893829279],[79.930877389109227,30.799434893829279],[79.930877389109227,30.799116057279711]],[[79.281873561818159,30.79879722073014],[79.282171680250542,30.79879722073014],[79.282171680250542,30.799116057279711],[79.281873561818159,30.799116057279711],[79.281873561818159,30.79879722073014]],[[79.765123540706,30.795927691784016],[79.765421659138383,30.795927691784016],[79.765421659138383,30.796246528333583],[79.765123540706,30.796246528333583],[79.765123540706,30.795927691784016]],[[79.332553695322744,30.795290018684877],[79.332851813755127,30.795290018684877],[79.332851813755127,30.795608855234445],[79.332553695322744,30.795608855234445],[79.332553695322744,30.795290018684877]],[[79.327485681972291,30.794652345585739],[79.327783800404674,30.794652345585739],[79.327783800404674,30.794971182135306],[79.327485681972291,30.794971182135306],[79.327485681972291,30.794652345585739]],[[79.335534879646545,30.793376999387458],[79.335832998078928,30.793376999387458],[79.335832998078928,30.793695835937029],[79.335534879646545,30.793695835937029],[79.335534879646545,30.793376999387458]],[[79.619045508839847,30.789550960792624],[79.619641745704598,30.789550960792624],[79.619641745704598,30.789869797342195],[79.619045508839847,30.789869797342195],[79.619045508839847,30.789550960792624]],[[79.300356904625716,30.784449575999513],[79.300655023058098,30.784449575999513],[79.300655023058098,30.784768412549081],[79.300356904625716,30.784768412549081],[79.300356904625716,30.784449575999513]],[[79.547795203501039,30.776159825710703],[79.548093321933422,30.776159825710703],[79.548093321933422,30.776478662260274],[79.547795203501039,30.776478662260274],[79.547795203501039,30.776159825710703]],[[79.559421822363859,30.773290296764578],[79.559719940796242,30.773290296764578],[79.559719940796242,30.773609133314146],[79.559421822363859,30.773609133314146],[79.559421822363859,30.773290296764578]],[[79.707288564824296,30.770420767818454],[79.707586683256679,30.770420767818454],[79.707586683256679,30.770739604368021],[79.707288564824296,30.770739604368021],[79.707288564824296,30.770420767818454]],[[79.368626025640722,30.755116613439114],[79.368924144073105,30.755116613439114],[79.368924144073105,30.755435449988685],[79.368626025640722,30.755435449988685],[79.368626025640722,30.755116613439114]],[[79.749621382222244,30.751928247943418],[79.749919500654627,30.751928247943418],[79.749919500654627,30.752247084492989],[79.749621382222244,30.752247084492989],[79.749621382222244,30.751928247943418]],[[79.326293208242774,30.75129057484428],[79.326591326675157,30.75129057484428],[79.326591326675157,30.751609411393851],[79.326293208242774,30.751609411393851],[79.326293208242774,30.75129057484428]],[[79.351633274995066,30.750652901745141],[79.351931393427449,30.750652901745141],[79.351931393427449,30.750971738294709],[79.351633274995066,30.750971738294709],[79.351633274995066,30.750652901745141]],[[79.75021761908701,30.750652901745141],[79.750515737519379,30.750652901745141],[79.750515737519379,30.750971738294709],[79.75021761908701,30.750971738294709],[79.75021761908701,30.750652901745141]],[[79.35491257775125,30.745870353501598],[79.355210696183619,30.745870353501598],[79.355210696183619,30.746189190051169],[79.35491257775125,30.746189190051169],[79.35491257775125,30.745870353501598]],[[79.320330839595172,30.742363151456331],[79.320628958027555,30.742363151456331],[79.320628958027555,30.742681988005902],[79.320330839595172,30.742681988005902],[79.320330839595172,30.742363151456331]],[[79.82832464837054,30.741725478357193],[79.828622766802923,30.741725478357193],[79.828622766802923,30.742044314906764],[79.82832464837054,30.742044314906764],[79.82832464837054,30.741725478357193]],[[79.732330513144205,30.739812459059777],[79.732628631576588,30.739812459059777],[79.732628631576588,30.740131295609345],[79.732330513144205,30.740131295609345],[79.732330513144205,30.739812459059777]],[[79.320032721162789,30.735986420464943],[79.320330839595172,30.735986420464943],[79.320330839595172,30.736305257014511],[79.320032721162789,30.736305257014511],[79.320032721162789,30.735986420464943]],[[79.317051536838989,30.735348747365801],[79.317349655271371,30.735348747365801],[79.317349655271371,30.735667583915372],[79.317051536838989,30.735667583915372],[79.317051536838989,30.735348747365801]],[[79.715635880930932,30.727377833626566],[79.715933999363315,30.727377833626566],[79.715933999363315,30.727696670176133],[79.715635880930932,30.727696670176133],[79.715635880930932,30.727377833626566]],[[79.77675015956882,30.725464814329147],[79.777048278001189,30.725464814329147],[79.777048278001189,30.725783650878718],[79.77675015956882,30.725783650878718],[79.77675015956882,30.725464814329147]],[[79.292307706951462,30.720682266085603],[79.292605825383845,30.720682266085603],[79.292605825383845,30.721001102635174],[79.292307706951462,30.721001102635174],[79.292307706951462,30.720682266085603]],[[79.3051267995438,30.715262044742921],[79.305424917976183,30.715262044742921],[79.305424917976183,30.715580881292492],[79.3051267995438,30.715580881292492],[79.3051267995438,30.715262044742921]],[[79.320927076459938,30.715262044742921],[79.321225194892307,30.715262044742921],[79.321225194892307,30.715580881292492],[79.320927076459938,30.715580881292492],[79.320927076459938,30.715262044742921]],[[79.314368470947571,30.714943208193354],[79.314666589379954,30.714943208193354],[79.314666589379954,30.715262044742921],[79.314368470947571,30.715262044742921],[79.314368470947571,30.714943208193354]],[[79.291413351654327,30.713986698544645],[79.291711470086696,30.713986698544645],[79.291711470086696,30.714305535094212],[79.291413351654327,30.714305535094212],[79.291413351654327,30.713986698544645]],[[79.783308765081173,30.712073679247226],[79.783606883513556,30.712073679247226],[79.783606883513556,30.712392515796797],[79.783308765081173,30.712392515796797],[79.783308765081173,30.712073679247226]],[[79.306021154840934,30.710798333048949],[79.306319273273317,30.710798333048949],[79.306319273273317,30.711117169598516],[79.306021154840934,30.711117169598516],[79.306021154840934,30.710798333048949]],[[79.844423043719061,30.709841823400239],[79.84472116215143,30.709841823400239],[79.84472116215143,30.71016065994981],[79.844423043719061,30.71016065994981],[79.844423043719061,30.709841823400239]],[[79.340901011429381,30.706972294454115],[79.341199129861764,30.706972294454115],[79.341199129861764,30.707291131003682],[79.340901011429381,30.707291131003682],[79.340901011429381,30.706972294454115]],[[79.71533776249855,30.706334621354976],[79.715635880930932,30.706334621354976],[79.715635880930932,30.706653457904544],[79.71533776249855,30.706653457904544],[79.71533776249855,30.706334621354976]],[[79.307511747002835,30.704421602057558],[79.307809865435217,30.704421602057558],[79.307809865435217,30.704740438607129],[79.307511747002835,30.704740438607129],[79.307511747002835,30.704421602057558]],[[79.618449271975081,30.698363707615737],[79.618747390407464,30.698363707615737],[79.618747390407464,30.698682544165305],[79.618449271975081,30.698682544165305],[79.618449271975081,30.698363707615737]],[[79.395158566122532,30.697088361417457],[79.395456684554915,30.697088361417457],[79.395456684554915,30.697407197967028],[79.395158566122532,30.697407197967028],[79.395158566122532,30.697088361417457]],[[79.312579760353302,30.692943486273055],[79.31287787878567,30.692943486273055],[79.31287787878567,30.693262322822623],[79.312579760353302,30.693262322822623],[79.312579760353302,30.692943486273055]],[[79.949658850349167,30.691668140074775],[79.949956968781549,30.691668140074775],[79.949956968781549,30.691986976624346],[79.949658850349167,30.691986976624346],[79.949658850349167,30.691668140074775]],[[79.709971630715714,30.687842101479941],[79.710269749148097,30.687842101479941],[79.710269749148097,30.688160938029512],[79.709971630715714,30.688160938029512],[79.709971630715714,30.687842101479941]],[[79.378165815476876,30.685291409083383],[79.378463933909259,30.685291409083383],[79.378463933909259,30.685610245632954],[79.378165815476876,30.685610245632954],[79.378165815476876,30.685291409083383]],[[79.311685405056153,30.681146533938982],[79.311983523488536,30.681146533938982],[79.311983523488536,30.681465370488549],[79.311685405056153,30.681465370488549],[79.311685405056153,30.681146533938982]],[[79.319436484298038,30.680508860839844],[79.319138365865655,30.680508860839844],[79.319138365865655,30.680190024290273],[79.319436484298038,30.680190024290273],[79.319436484298038,30.680508860839844]],[[79.319436484298038,30.679871187740702],[79.319734602730421,30.679871187740702],[79.319734602730421,30.680190024290273],[79.319436484298038,30.680190024290273],[79.319436484298038,30.679871187740702]],[[79.317945892136137,30.677320495344148],[79.31824401056852,30.677320495344148],[79.31824401056852,30.677639331893715],[79.317945892136137,30.677639331893715],[79.317945892136137,30.677320495344148]],[[79.340901011429381,30.664567033361365],[79.341199129861764,30.664567033361365],[79.341199129861764,30.664885869910936],[79.340901011429381,30.664885869910936],[79.340901011429381,30.664567033361365]],[[79.340602892997012,30.663610523712656],[79.340901011429381,30.663610523712656],[79.340901011429381,30.663929360262227],[79.340602892997012,30.663929360262227],[79.340602892997012,30.663610523712656]],[[79.739485355521325,30.655001936874278],[79.739783473953707,30.655001936874278],[79.739783473953707,30.655320773423849],[79.739485355521325,30.655320773423849],[79.739485355521325,30.655001936874278]],[[79.628287180243618,30.648306369333319],[79.628585298676001,30.648306369333319],[79.628585298676001,30.648625205882887],[79.628287180243618,30.648625205882887],[79.628287180243618,30.648306369333319]],[[79.448521765518535,30.642248474891499],[79.448819883950918,30.642248474891499],[79.448819883950918,30.642567311441066],[79.448521765518535,30.642567311441066],[79.448521765518535,30.642248474891499]],[[79.922530073002591,30.615785041277224],[79.922828191434974,30.615785041277224],[79.922828191434974,30.616103877826795],[79.922530073002591,30.616103877826795],[79.922530073002591,30.615785041277224]],[[79.771384027785984,30.573379780184478],[79.771682146218353,30.573379780184478],[79.771682146218353,30.573698616734045],[79.771384027785984,30.573698616734045],[79.771384027785984,30.573379780184478]],[[79.699537485582425,30.568278395391363],[79.699835604014794,30.568278395391363],[79.699835604014794,30.568597231940934],[79.699537485582425,30.568597231940934],[79.699537485582425,30.568278395391363]],[[79.980663167316678,30.566365376093948],[79.980961285749061,30.566365376093948],[79.980961285749061,30.566684212643516],[79.980663167316678,30.566684212643516],[79.980663167316678,30.566365376093948]],[[79.951149442511067,30.552974241012027],[79.95144756094345,30.552974241012027],[79.95144756094345,30.553293077561595],[79.951149442511067,30.553293077561595],[79.951149442511067,30.552974241012027]],[[79.972017732777658,30.55042354861547],[79.972315851210041,30.55042354861547],[79.972315851210041,30.550742385165041],[79.972017732777658,30.550742385165041],[79.972017732777658,30.55042354861547]],[[79.969632785318623,30.545641000371926],[79.969930903750992,30.545641000371926],[79.969930903750992,30.545959836921497],[79.969632785318623,30.545959836921497],[79.969632785318623,30.545641000371926]],[[79.992587904611867,30.514395018514112],[79.99288602304425,30.514395018514112],[79.99288602304425,30.514713855063683],[79.992587904611867,30.514713855063683],[79.992587904611867,30.514395018514112]],[[79.882582203063677,30.512800835766264],[79.88288032149606,30.512800835766264],[79.88288032149606,30.513119672315835],[79.882582203063677,30.513119672315835],[79.882582203063677,30.512800835766264]],[[79.922828191434974,30.510250143369706],[79.923126309867357,30.510250143369706],[79.923126309867357,30.510568979919277],[79.922828191434974,30.510568979919277],[79.922828191434974,30.510250143369706]],[[79.565384191011461,30.50897479717143],[79.565682309443844,30.50897479717143],[79.565682309443844,30.509293633721001],[79.565384191011461,30.509293633721001],[79.565384191011461,30.50897479717143]],[[79.954726863699619,30.504829922027024],[79.955024982132002,30.504829922027024],[79.955024982132002,30.505148758576595],[79.954726863699619,30.505148758576595],[79.954726863699619,30.504829922027024]],[[79.961285469211987,30.504511085477457],[79.961583587644355,30.504511085477457],[79.961583587644355,30.504829922027024],[79.961285469211987,30.504829922027024],[79.961285469211987,30.504511085477457]],[[79.858136491608533,30.498772027585204],[79.858434610040916,30.498772027585204],[79.858434610040916,30.499090864134775],[79.858136491608533,30.499090864134775],[79.858136491608533,30.498772027585204]],[[79.943100244836799,30.47485928636749],[79.943398363269182,30.47485928636749],[79.943398363269182,30.475178122917058],[79.943100244836799,30.475178122917058],[79.943100244836799,30.47485928636749]],[[79.98424058850523,30.474221613268348],[79.984538706937613,30.474221613268348],[79.984538706937613,30.474540449817919],[79.98424058850523,30.474540449817919],[79.98424058850523,30.474221613268348]],[[79.985731180667131,30.472627430520504],[79.986029299099513,30.472627430520504],[79.986029299099513,30.472946267070071],[79.985731180667131,30.472946267070071],[79.985731180667131,30.472627430520504]],[[79.479526082486046,30.452859564447191],[79.479824200918429,30.452859564447191],[79.479824200918429,30.453178400996759],[79.479526082486046,30.453178400996759],[79.479526082486046,30.452859564447191]],[[79.477737371891763,30.449671198951496],[79.478035490324146,30.449671198951496],[79.478035490324146,30.449990035501067],[79.477737371891763,30.449990035501067],[79.477737371891763,30.449671198951496]],[[79.281873561818159,30.441700285212256],[79.282469798682925,30.441700285212256],[79.282469798682925,30.442019121761827],[79.281873561818159,30.442019121761827],[79.281873561818159,30.441700285212256]],[[79.955919337429137,30.428309150130335],[79.95621745586152,30.428309150130335],[79.95621745586152,30.428627986679906],[79.955919337429137,30.428627986679906],[79.955919337429137,30.428309150130335]],[[79.263986455875369,30.426714967382487],[79.264284574307752,30.426714967382487],[79.264284574307752,30.427033803932058],[79.263986455875369,30.427033803932058],[79.263986455875369,30.426714967382487]],[[79.972017732777658,30.420657072940667],[79.972315851210041,30.420657072940667],[79.972315851210041,30.420975909490238],[79.972017732777658,30.420975909490238],[79.972017732777658,30.420657072940667]],[[79.352229511859818,30.405990591660469],[79.352527630292201,30.405990591660469],[79.352527630292201,30.406309428210037],[79.352229511859818,30.406309428210037],[79.352229511859818,30.405990591660469]],[[79.68403532709867,30.405671755110898],[79.684333445531038,30.405671755110898],[79.684333445531038,30.405990591660469],[79.68403532709867,30.405990591660469],[79.68403532709867,30.405671755110898]],[[79.399928461040616,30.39801967792123],[79.400226579472985,30.39801967792123],[79.400226579472985,30.398338514470801],[79.399928461040616,30.398338514470801],[79.399928461040616,30.39801967792123]],[[79.995569088935667,30.393874802776825],[79.99586720736805,30.393874802776825],[79.99586720736805,30.394193639326396],[79.995569088935667,30.394193639326396],[79.995569088935667,30.393874802776825]],[[79.359086235804568,30.387498071785433],[79.359384354236937,30.387498071785433],[79.359384354236937,30.387816908335004],[79.359086235804568,30.387816908335004],[79.359086235804568,30.387498071785433]],[[79.604437705653226,30.387179235235866],[79.604735824085608,30.387179235235866],[79.604735824085608,30.387498071785433],[79.604437705653226,30.387498071785433],[79.604437705653226,30.387179235235866]],[[79.314070352515202,30.376019956000931],[79.314368470947571,30.376019956000931],[79.314368470947571,30.376338792550502],[79.314070352515202,30.376338792550502],[79.314070352515202,30.376019956000931]],[[79.515896531236393,30.375701119451364],[79.516194649668776,30.375701119451364],[79.516194649668776,30.376019956000931],[79.515896531236393,30.376019956000931],[79.515896531236393,30.375701119451364]],[[79.54213095328582,30.374425773253083],[79.542429071718203,30.374425773253083],[79.542429071718203,30.374744609802654],[79.54213095328582,30.374744609802654],[79.54213095328582,30.374425773253083]],[[79.754391277140328,30.36262882091901],[79.754689395572697,30.36262882091901],[79.754689395572697,30.362947657468581],[79.754391277140328,30.362947657468581],[79.754391277140328,30.36262882091901]],[[79.755285632437463,30.361672311270304],[79.755583750869846,30.361672311270304],[79.755583750869846,30.361991147819872],[79.755285632437463,30.361991147819872],[79.755285632437463,30.361672311270304]],[[79.230597191448823,30.358165109225038],[79.230895309881205,30.358165109225038],[79.230895309881205,30.358483945774609],[79.230597191448823,30.358483945774609],[79.230597191448823,30.358165109225038]],[[79.928194323217809,30.353701397531065],[79.928492441650192,30.353701397531065],[79.928492441650192,30.354020234080632],[79.928194323217809,30.354020234080632],[79.928194323217809,30.353701397531065]],[[79.770787790921219,30.350513032035369],[79.771085909353602,30.350513032035369],[79.771085909353602,30.350831868584937],[79.770787790921219,30.350831868584937],[79.770787790921219,30.350513032035369]],[[79.791357962755427,30.348918849287521],[79.79165608118781,30.348918849287521],[79.79165608118781,30.349237685837089],[79.791357962755427,30.349237685837089],[79.791357962755427,30.348918849287521]],[[79.81490931891345,30.334890041106462],[79.815207437345819,30.334890041106462],[79.815207437345819,30.335208877656029],[79.81490931891345,30.335208877656029],[79.81490931891345,30.334890041106462]],[[79.855751544149498,30.325643781168946],[79.856049662581867,30.325643781168946],[79.856049662581867,30.325962617718513],[79.855751544149498,30.325962617718513],[79.855751544149498,30.325643781168946]],[[79.836373846044793,30.319585886727122],[79.836671964477176,30.319585886727122],[79.836671964477176,30.319904723276693],[79.836373846044793,30.319904723276693],[79.836373846044793,30.319585886727122]],[[79.832200187991475,30.319267050177555],[79.832498306423858,30.319267050177555],[79.832498306423858,30.319585886727122],[79.832200187991475,30.319585886727122],[79.832200187991475,30.319267050177555]],[[79.829219003667674,30.317991703979274],[79.829517122100057,30.317991703979274],[79.829517122100057,30.318310540528845],[79.829219003667674,30.318310540528845],[79.829219003667674,30.317991703979274]],[[79.822660398155321,30.310020790240038],[79.822958516587704,30.310020790240038],[79.822958516587704,30.310339626789606],[79.822660398155321,30.310339626789606],[79.822660398155321,30.310020790240038]],[[79.906133559221701,30.306513588194772],[79.906431677654084,30.306513588194772],[79.906431677654084,30.306832424744343],[79.906133559221701,30.306832424744343],[79.906133559221701,30.306513588194772]],[[79.811630016157267,30.305238241996495],[79.81192813458965,30.305238241996495],[79.81192813458965,30.305557078546062],[79.811630016157267,30.305557078546062],[79.811630016157267,30.305238241996495]],[[79.115821594982549,30.30109336685209],[79.116119713414932,30.30109336685209],[79.116119713414932,30.301412203401661],[79.115821594982549,30.301412203401661],[79.115821594982549,30.30109336685209]],[[79.101511910228325,30.300774530302519],[79.101810028660694,30.300774530302519],[79.101810028660694,30.30109336685209],[79.101511910228325,30.30109336685209],[79.101511910228325,30.300774530302519]],[[79.111349818496862,30.300774530302519],[79.111946055361614,30.300774530302519],[79.111946055361614,30.30109336685209],[79.111349818496862,30.30109336685209],[79.111349818496862,30.300774530302519]],[[79.807456358103948,30.299818020653813],[79.807754476536331,30.299818020653813],[79.807754476536331,30.30013685720338],[79.807456358103948,30.30013685720338],[79.807456358103948,30.299818020653813]],[[79.909114743545501,30.299499184104242],[79.90941286197787,30.299499184104242],[79.90941286197787,30.299818020653813],[79.909114743545501,30.299818020653813],[79.909114743545501,30.299499184104242]],[[79.095847660013106,30.298542674455533],[79.096145778445475,30.298542674455533],[79.096145778445475,30.298861511005104],[79.095847660013106,30.298861511005104],[79.095847660013106,30.298542674455533]],[[79.294692654410497,30.297905001356394],[79.29499077284288,30.297905001356394],[79.29499077284288,30.298223837905965],[79.294692654410497,30.298223837905965],[79.294692654410497,30.297905001356394]],[[79.293500180680979,30.297267328257256],[79.293798299113362,30.297267328257256],[79.293798299113362,30.297586164806823],[79.293500180680979,30.297586164806823],[79.293500180680979,30.297267328257256]],[[79.277998022197224,30.29503547241027],[79.278296140629607,30.29503547241027],[79.278296140629607,30.295354308959837],[79.277998022197224,30.295354308959837],[79.277998022197224,30.29503547241027]],[[79.281873561818159,30.294716635860699],[79.282171680250542,30.294716635860699],[79.282171680250542,30.29503547241027],[79.281873561818159,30.29503547241027],[79.281873561818159,30.294716635860699]],[[79.292903943816228,30.294716635860699],[79.293202062248596,30.294716635860699],[79.293202062248596,30.29503547241027],[79.292903943816228,30.29503547241027],[79.292903943816228,30.294716635860699]],[[79.153980754327179,30.289296414518017],[79.154278872759562,30.289296414518017],[79.154278872759562,30.289615251067588],[79.153980754327179,30.289615251067588],[79.153980754327179,30.289296414518017]],[[79.163520544163347,30.287702231770169],[79.163818662595716,30.287702231770169],[79.163818662595716,30.28802106831974],[79.163520544163347,30.28802106831974],[79.163520544163347,30.287702231770169]],[[79.167396083784283,30.287383395220601],[79.167694202216666,30.287383395220601],[79.167694202216666,30.287702231770169],[79.167396083784283,30.287702231770169],[79.167396083784283,30.287383395220601]],[[79.159048767677646,30.286426885571892],[79.159346886110029,30.286426885571892],[79.159346886110029,30.286745722121459],[79.159048767677646,30.286745722121459],[79.159048767677646,30.286426885571892]],[[79.160837478271915,30.286108049022321],[79.161135596704298,30.286108049022321],[79.161135596704298,30.286426885571892],[79.160837478271915,30.286426885571892],[79.160837478271915,30.286108049022321]],[[79.160539359839547,30.285470375923182],[79.160837478271915,30.285470375923182],[79.160837478271915,30.285789212472753],[79.160539359839547,30.285789212472753],[79.160539359839547,30.285470375923182]],[[79.161433715136681,30.285151539373611],[79.161731833569064,30.285151539373611],[79.161731833569064,30.285470375923182],[79.161433715136681,30.285470375923182],[79.161433715136681,30.285151539373611]],[[79.164414899460482,30.284832702824044],[79.164713017892865,30.284832702824044],[79.164713017892865,30.285151539373611],[79.164414899460482,30.285151539373611],[79.164414899460482,30.284832702824044]],[[79.242223810311643,30.281644337328348],[79.242521928744011,30.281644337328348],[79.242521928744011,30.281963173877919],[79.242223810311643,30.281963173877919],[79.242223810311643,30.281644337328348]],[[79.239838862852594,30.280050154580501],[79.240136981284977,30.280050154580501],[79.240136981284977,30.280368991130072],[79.239838862852594,30.280368991130072],[79.239838862852594,30.280050154580501]],[[79.466408871461326,30.259963451957621],[79.466706989893709,30.259963451957621],[79.466706989893709,30.260282288507188],[79.466408871461326,30.260282288507188],[79.466408871461326,30.259963451957621]],[[79.637826970079772,30.237963730037322],[79.638125088512155,30.237963730037322],[79.638125088512155,30.238282566586889],[79.637826970079772,30.238282566586889],[79.637826970079772,30.237963730037322]],[[79.255042902903966,30.236050710739903],[79.255341021336349,30.236050710739903],[79.255341021336349,30.236369547289474],[79.255042902903966,30.236369547289474],[79.255042902903966,30.236050710739903]],[[79.256235376633498,30.228717470099806],[79.256533495065867,30.228717470099806],[79.256533495065867,30.229036306649373],[79.256235376633498,30.229036306649373],[79.256235376633498,30.228717470099806]],[[79.340006656132246,30.217558190864871],[79.340304774564629,30.217558190864871],[79.340304774564629,30.217877027414438],[79.340006656132246,30.217877027414438],[79.340006656132246,30.217558190864871]],[[79.455378489463271,30.212456806071756],[79.455676607895654,30.212456806071756],[79.455676607895654,30.212775642621327],[79.455378489463271,30.212775642621327],[79.455378489463271,30.212456806071756]],[[79.532889281882049,30.206398911629936],[79.533187400314432,30.206398911629936],[79.533187400314432,30.206717748179507],[79.532889281882049,30.206717748179507],[79.532889281882049,30.206398911629936]],[[79.252657955444931,30.19013824760189],[79.252956073877314,30.19013824760189],[79.252956073877314,30.190457084151461],[79.252657955444931,30.190457084151461],[79.252657955444931,30.19013824760189]],[[79.126255740115852,30.174196420123412],[79.126553858548235,30.174196420123412],[79.126553858548235,30.174515256672983],[79.126255740115852,30.174515256672983],[79.126255740115852,30.174196420123412]],[[79.409170132444387,30.169413871879868],[79.40946825087677,30.169413871879868],[79.40946825087677,30.169732708429439],[79.409170132444387,30.169732708429439],[79.409170132444387,30.169413871879868]],[[79.596090389546589,30.16877619878073],[79.596388507978972,30.16877619878073],[79.596388507978972,30.169095035330301],[79.596090389546589,30.169095035330301],[79.596090389546589,30.16877619878073]],[[79.397543513581567,30.166544342933744],[79.39784163201395,30.166544342933744],[79.39784163201395,30.166863179483315],[79.397543513581567,30.166863179483315],[79.397543513581567,30.166544342933744]],[[79.650049825807358,30.151559025103975],[79.650347944239741,30.151559025103975],[79.650347944239741,30.151877861653546],[79.650049825807358,30.151877861653546],[79.650049825807358,30.151559025103975]],[[79.465514516164191,30.145501130662154],[79.465812634596574,30.145501130662154],[79.465812634596574,30.145819967211725],[79.465514516164191,30.145819967211725],[79.465514516164191,30.145501130662154]],[[79.357595643642668,30.129240466634108],[79.357893762075037,30.129240466634108],[79.357893762075037,30.129559303183676],[79.357595643642668,30.129559303183676],[79.357595643642668,30.129240466634108]],[[79.40648706655297,30.118718860498312],[79.406785184985353,30.118718860498312],[79.406785184985353,30.119037697047883],[79.40648706655297,30.119037697047883],[79.40648706655297,30.118718860498312]],[[79.554055690581023,30.103733542668547],[79.554353809013406,30.103733542668547],[79.554353809013406,30.104052379218114],[79.554055690581023,30.104052379218114],[79.554055690581023,30.103733542668547]],[[79.444049989032834,30.096719138578017],[79.444348107465217,30.096719138578017],[79.444348107465217,30.097037975127584],[79.444049989032834,30.097037975127584],[79.444049989032834,30.096719138578017]],[[79.66525386585873,30.095124955830169],[79.665551984291113,30.095124955830169],[79.665551984291113,30.095443792379736],[79.66525386585873,30.095443792379736],[79.66525386585873,30.095124955830169]],[[79.277998022197224,30.079820801450829],[79.278296140629607,30.079820801450829],[79.278296140629607,30.0801396380004],[79.277998022197224,30.0801396380004],[79.277998022197224,30.079820801450829]],[[79.596686626411355,30.076951272504704],[79.596984744843724,30.076951272504704],[79.596984744843724,30.077270109054272],[79.596686626411355,30.077270109054272],[79.596686626411355,30.076951272504704]],[[79.199592874481311,30.069936868414175],[79.199890992913694,30.069936868414175],[79.199890992913694,30.070255704963742],[79.199592874481311,30.070255704963742],[79.199592874481311,30.069936868414175]],[[79.57879952046855,30.046980636845166],[79.579097638900933,30.046980636845166],[79.579097638900933,30.047299473394737],[79.57879952046855,30.047299473394737],[79.57879952046855,30.046980636845166]],[[79.28336415398006,30.03869088655636],[79.283662272412442,30.03869088655636],[79.283662272412442,30.039009723105927],[79.28336415398006,30.039009723105927],[79.28336415398006,30.03869088655636]],[[79.312579760353302,30.03869088655636],[79.31287787878567,30.03869088655636],[79.31287787878567,30.039009723105927],[79.312579760353302,30.039009723105927],[79.312579760353302,30.03869088655636]],[[79.559421822363859,30.03167648246583],[79.559719940796242,30.03167648246583],[79.559719940796242,30.031995319015397],[79.559421822363859,30.031995319015397],[79.559421822363859,30.03167648246583]],[[79.527523150099213,30.005213048851559],[79.527821268531596,30.005213048851559],[79.527821268531596,30.005531885401126],[79.527523150099213,30.005531885401126],[79.527523150099213,30.005213048851559]]]]}}
]
}
