{
"type": "FeatureCollection",
"name": "landslide_zones_v4",
"crs": { "type": "name", "properties": { "name": "urn:ogc:def:crs:OGC:1.3:CRS84" } },
"xy_coordinate_resolution": 1e-15,
"features": [
{"type":"Feature","properties":{"DN":1},"geometry":{"type":"MultiPolygon","coordinates":[[[[79.315483092000136,31.001012802000048],[79.31574249200014,31.002559662000181],[79.31343078600014,31.00663948100015],[79.30383300900013,31.010189057],[79.296386720000157,31.01482009900019],[79.295631409000123,31.016330720000042],[79.296142578000058,31.018949508],[79.298248292000039,31.023090362000175],[79.305976867000084,31.029270172000054],[79.315696717000151,31.033702850000168],[79.325080872000058,31.035270690000061],[79.326591326675157,31.035266893303668],[79.326591326675157,31.03505510396117],[79.326889445107525,31.03505510396117],[79.326889445107525,31.035266143949716],[79.333427428,31.035249710000073],[79.345886230000019,31.040018083000177],[79.349151612000014,31.043830871000182],[79.358589172,31.050140382000052],[79.362457276000157,31.054359437000187],[79.374298096000189,31.072652817000176],[79.392356872000107,31.079811097],[79.394691467000087,31.079631806000179],[79.399665831999982,31.080329894000045],[79.400421142000141,31.080099106000148],[79.401741027000185,31.079891206000184],[79.406242370000029,31.076988220000146],[79.407348632000094,31.073389054000074],[79.407882690000065,31.073169709000126],[79.408409119000169,31.072950363000075],[79.408424377000188,31.072542192000128],[79.408462524000072,31.071342468000182],[79.408882141000049,31.056491852000136],[79.409759522000115,31.052360536000094],[79.411361695000039,31.047309877000089],[79.413085938000165,31.037551880000137],[79.421752930000139,31.03582954400008],[79.42471313600015,31.036312104000046],[79.433227540000132,31.037710190000098],[79.45729827800011,31.039501191000056],[79.461097718000019,31.040359496000121],[79.465896606000058,31.041370391000157],[79.472000122000054,31.040260314000079],[79.479812623000157,31.038070679000157],[79.487358094000172,31.041059494000137],[79.49366760200013,31.040872575000037],[79.497062683000138,31.041362763000052],[79.501258850000113,31.039140702000168],[79.50209045400004,31.038000108000119],[79.502876281000113,31.037572861],[79.502792359000068,31.030517578000058],[79.502761841000051,31.027639390000104],[79.504035950000059,31.025840759000062],[79.504577636000079,31.025611878000063],[79.504592896000133,31.024919510000132],[79.504882812000119,31.02380180300014],[79.505386353000119,31.023571015000016],[79.505401612000071,31.023122787999966],[79.507759095000154,31.021799087000147],[79.507766723000088,31.02135086100003],[79.508308410000041,31.020891189000167],[79.508956909000176,31.020811080000044],[79.50940704400017,31.020536422000021],[79.510986328000115,31.01958084],[79.514633179000157,31.017219544000056],[79.516319276000104,31.016229630000055],[79.517097472000046,31.014869689000022],[79.517791747,31.014430999000183],[79.518608093000068,31.013980865000065],[79.518608093000068,31.013511658000027],[79.520339967000155,31.010589599000127],[79.521377563000044,31.009929658000146],[79.521926881000184,31.008350372000052],[79.522468567000089,31.008121491000168],[79.522666931000174,31.004520417000151],[79.521004457840888,30.99966424695895],[79.314785187873568,30.99966424695895],[79.315483092000136,31.001012802000048]],[[79.403804000661552,31.04812740249352],[79.404102119093935,31.04812740249352],[79.404102119093935,31.048446239043091],[79.403804000661552,31.048446239043091],[79.403804000661552,31.04812740249352]],[[79.401120934770134,31.042707181150838],[79.401419053202503,31.042707181150838],[79.401419053202503,31.043026017700409],[79.401120934770134,31.043026017700409],[79.401120934770134,31.042707181150838]],[[79.351037038130301,31.036649286709018],[79.351335156562683,31.036649286709018],[79.351335156562683,31.036968123258585],[79.351037038130301,31.036968123258585],[79.351037038130301,31.036649286709018]],[[79.427653475251944,31.03505510396117],[79.427951593684327,31.03505510396117],[79.427951593684327,31.035373940510741],[79.427653475251944,31.035373940510741],[79.427653475251944,31.03505510396117]],[[79.335236761214162,31.02198280542882],[79.335534879646545,31.02198280542882],[79.335534879646545,31.022301641978387],[79.335236761214162,31.022301641978387],[79.335236761214162,31.02198280542882]],[[79.351335156562683,31.018794439933124],[79.351633274995066,31.018794439933124],[79.351633274995066,31.019113276482692],[79.351335156562683,31.019113276482692],[79.351335156562683,31.018794439933124]],[[79.328678155701809,31.01369305514001],[79.328976274134192,31.01369305514001],[79.328976274134192,31.014011891689581],[79.328678155701809,31.014011891689581],[79.328678155701809,31.01369305514001]],[[79.428547830549078,31.012098872392162],[79.428845948981461,31.012098872392162],[79.428845948981461,31.012417708941733],[79.428547830549078,31.012417708941733],[79.428547830549078,31.012098872392162]]],[[[79.732215882000105,31.001569748000122],[79.732505799000194,31.001991273000101],[79.734207153000114,31.002910614000086],[79.734596252000017,31.003580093000153],[79.738082885000154,31.006099701000039],[79.742149353000173,31.006790160999969],[79.745590209000113,31.00615120100008],[79.750572205000196,31.001190186000031],[79.751128966076521,30.99966424695895],[79.730933236416874,30.99966424695895],[79.732215882000105,31.001569748000122]]]]}}
]
}
