{
"type": "FeatureCollection",
"name": "villages",
"crs": { "type": "name", "properties": { "name": "urn:ogc:def:crs:OGC:1.3:CRS84" } },
"features": [
{"type":"Feature","properties":{"id":1,"name":"Gopeshwar","latitude":30.4167,"longitude":79.3167,"population":4500,"elderly_population":450,"children_population":900,"disability_population":120,"risk_score":false,"priority":"null"},"geometry":{"type":"Point","coordinates":[79.3167,30.4167]}},
{"type":"Feature","properties":{"id":2,"name":"Joshimath","latitude":30.5578,"longitude":79.5644,"population":3000,"elderly_population":300,"children_population":600,"disability_population":80,"risk_score":false,"priority":"null"},"geometry":{"type":"Point","coordinates":[79.5644,30.5578]}},
{"type":"Feature","properties":{"id":3,"name":"Karnaprayag","latitude":30.2681,"longitude":79.2506,"population":8000,"elderly_population":800,"children_population":1600,"disability_population":200,"risk_score":false,"priority":"null"},"geometry":{"type":"Point","coordinates":[79.2506,30.2681]}},
{"type":"Feature","properties":{"id":4,"name":"Nandprayag","latitude":30.3388,"longitude":79.3199,"population":2500,"elderly_population":250,"children_population":500,"disability_population":65,"risk_score":false,"priority":"null"},"geometry":{"type":"Point","coordinates":[79.3199,30.3388]}},
{"type":"Feature","properties":{"id":5,"name":"Pipalkoti","latitude":30.4833,"longitude":79.4833,"population":1800,"elderly_population":180,"children_population":360,"disability_population":45,"risk_score":false,"priority":"null"},"geometry":{"type":"Point","coordinates":[79.4833,30.4833]}},
{"type":"Feature","properties":{"id":6,"name":"Chamoli Town","latitude":30.41,"longitude":79.33,"population":3200,"elderly_population":320,"children_population":640,"disability_population":90,"risk_score":false,"priority":"null"},"geometry":{"type":"Point","coordinates":[79.33,30.41]}},
{"type":"Feature","properties":{"id":7,"name":"Simli","latitude":30.45,"longitude":79.37,"population":1400,"elderly_population":140,"children_population":280,"disability_population":35,"risk_score":false,"priority":"null"},"geometry":{"type":"Point","coordinates":[79.37,30.45]}},
{"type":"Feature","properties":{"id":8,"name":"Tharali","latitude":30.2833,"longitude":79.1333,"population":2100,"elderly_population":210,"children_population":420,"disability_population":50,"risk_score":false,"priority":"null"},"geometry":{"type":"Point","coordinates":[79.1333,30.2833]}}
]
}
